{
"type": "FeatureCollection",
"name": "alignment",
"crs": { "type": "name", "properties": { "name": "urn:ogc:def:crs:OGC:1.3:CRS84" } },
"features": [
{ "type": "Feature", "properties": { "name": "Dravyavati Corridor (reconstructed)", "length_km": 41.241350323108499, "north_endpoint_uncertain": true }, "geometry": { "type": "LineString", "coordinates": [ [ 75.790924376165719, 26.957440729634548 ], [ 75.790924376165719, 26.957440729634548 ], [ 75.786962273494197, 26.950464225517315 ], [ 75.787027725949329, 26.950346361952789 ], [ 75.780162672656857, 26.94658142568538 ], [ 75.779405633170654, 26.940191700899547 ], [ 75.782471736805434, 26.939329498400628 ], [ 75.769684618066364, 26.920842319146661 ], [ 75.76900758881213, 26.905068203502008 ], [ 75.762276083897902, 26.90177750887284 ], [ 75.756218705139645, 26.888012082800319 ], [ 75.762589202390018, 26.870201991704821 ], [ 75.774667433600712, 26.865959866967369 ], [ 75.778346987472361, 26.853537745307008 ], [ 75.77496026122418, 26.850448187648823 ], [ 75.791735482149818, 26.813505055270511 ], [ 75.794203868919723, 26.806508354618803 ], [ 75.811504065714445, 26.793408693532765 ], [ 75.834611070958815, 26.795311097220139 ], [ 75.840752510488244, 26.790439899390872 ], [ 75.84778660248368, 26.794173789275284 ], [ 75.849901530321205, 26.790941568942269 ], [ 75.857118938542314, 26.785913737457147 ], [ 75.863101075872109, 26.780283401272833 ], [ 75.882131578731673, 26.78269346845175 ], [ 75.901544293483511, 26.772301565194162 ], [ 75.90773096945837, 26.774600139130456 ], [ 75.934138937964931, 26.765840920764806 ], [ 75.950121406167668, 26.749838030324128 ], [ 75.925386475362799, 26.76693159423947 ] ] } }
]
}
