{
"type": "FeatureCollection",
"name": "alignment_eased",
"crs": { "type": "name", "properties": { "name": "urn:ogc:def:crs:OGC:1.3:CRS84" } },
"features": [
{ "type": "Feature", "properties": { "name": "Dravyavati corridor (curve-eased variant)", "easing_iterations": 1000, "length_km": 36.429, "drift_from_channel_m": 875.4, "vertices_below_irc_min": 11, "vertices_total": 824, "p5_radius_m": 2593.9, "irc86_min_radius_m": 150.0 }, "geometry": { "type": "LineString", "coordinates": [ [ 75.790924376165719, 26.957440729634552 ], [ 75.790668652555226, 26.957088204182128 ], [ 75.790413066470151, 26.956735724191006 ], [ 75.79015775397059, 26.956383335205341 ], [ 75.789902851395837, 26.956031081906964 ], [ 75.789648495477806, 26.95567900769576 ], [ 75.789394823422427, 26.955327154284149 ], [ 75.789141972949352, 26.954975561310174 ], [ 75.788890082280773, 26.954624265973308 ], [ 75.788639290071814, 26.954273302696631 ], [ 75.788389735275331, 26.953922702818861 ], [ 75.78814155693594, 26.953572494319133 ], [ 75.787894893908742, 26.953222701576816 ], [ 75.787649884500709, 26.952873345168538 ], [ 75.787406666033036, 26.952524441703606 ], [ 75.787165374325639, 26.952176003698703 ], [ 75.786926143105617, 26.951828039492252 ], [ 75.786689103343832, 26.951480553198106 ], [ 75.786454382524781, 26.951133544697861 ], [ 75.786222103857028, 26.950787009670549 ], [ 75.785992385432522, 26.950440939657973 ], [ 75.785765339344564, 26.950095322163708 ], [ 75.785541070775395, 26.949750140783067 ], [ 75.785319677065459, 26.94940537536143 ], [ 75.785101246777174, 26.949061002177821 ], [ 75.784885858766714, 26.94871699415058 ], [ 75.784673581277758, 26.948373321061521 ], [ 75.784464471071317, 26.948029949795444 ], [ 75.784258572606078, 26.947686844591328 ], [ 75.784055917282913, 26.947343967301812 ], [ 75.783856522767181, 26.94700127765773 ], [ 75.783660392401742, 26.946658733534427 ], [ 75.783467514722545, 26.94631629121691 ], [ 75.783277863087378, 26.945973905660999 ], [ 75.783091395427888, 26.945631530748233 ], [ 75.782908054132335, 26.945289119531832 ], [ 75.782727766066145, 26.944946624472326 ], [ 75.782550442734617, 26.94460399766087 ], [ 75.782375980590956, 26.944261191029071 ], [ 75.782204261490847, 26.943918156544452 ], [ 75.782035153292412, 26.943574846390643 ], [ 75.781868510599125, 26.943231213132155 ], [ 75.781704175640883, 26.942887209863397 ], [ 75.781541979286615, 26.942542790342298 ], [ 75.781381742180514, 26.942197909108593 ], [ 75.781223275991422, 26.941852521587698 ], [ 75.781066384764358, 26.941506584180338 ], [ 75.780910866360998, 26.941160054339353 ], [ 75.780756513975206, 26.940812890634188 ], [ 75.780603117708353, 26.940465052804253 ], [ 75.780450466188782, 26.940116501802134 ], [ 75.780298348218594, 26.939767199827756 ], [ 75.780146554431056, 26.939417110354654 ], [ 75.779994878941565, 26.939066198149163 ], [ 75.779843120975087, 26.938714429283802 ], [ 75.779691086453653, 26.938361771145676 ], [ 75.779538589527235, 26.938008192440829 ], [ 75.779385454033033, 26.937653663195423 ], [ 75.779231514868201, 26.937298154754533 ], [ 75.77907661926244, 26.936941639779263 ], [ 75.778920627938305, 26.936584092242889 ], [ 75.778763416147967, 26.936225487426729 ], [ 75.778604874576729, 26.935865801916126 ], [ 75.77844491010552, 26.935505013597329 ], [ 75.778283446425334, 26.935143101655747 ], [ 75.778120424499264, 26.934780046575892 ], [ 75.777955802868334, 26.934415830143831 ], [ 75.777789557799807, 26.934050435452402 ], [ 75.7776216832778, 26.933683846909762 ], [ 75.777452190837735, 26.933316050251843 ], [ 75.777281109247568, 26.932947032559078 ], [ 75.777108484040426, 26.932576782277927 ], [ 75.776934376904265, 26.932205289247811 ], [ 75.776758864935388, 26.931832544733716 ], [ 75.776582039764548, 26.931458541465037 ], [ 75.776404006563837, 26.931083273681011 ], [ 75.776224882945357, 26.930706737183073 ], [ 75.776044797761699, 26.930328929394388 ], [ 75.775863889820045, 26.929949849426706 ], [ 75.775682306521617, 26.929569498154695 ], [ 75.775500202439005, 26.929187878297455 ], [ 75.77531773784375, 26.928804994507296 ], [ 75.775135077197021, 26.928420853465113 ], [ 75.774952387616338, 26.928035463981942 ], [ 75.774769837331007, 26.927648837105981 ], [ 75.774587594138765, 26.927260986233943 ], [ 75.774405823876506, 26.92687192722585 ], [ 75.774224688916817, 26.926481678521647 ], [ 75.774044346702212, 26.926090261258231 ], [ 75.77386494832848, 26.92569769938509 ], [ 75.773686637187907, 26.925304019776615 ], [ 75.773509547682622, 26.92490925233891 ], [ 75.77333380401771, 26.92451343010891 ], [ 75.773159519083336, 26.92411658934337 ], [ 75.772986793433773, 26.923718769595194 ], [ 75.772815714371433, 26.92332001377471 ], [ 75.7726463551422, 26.922920368193086 ], [ 75.77247877424854, 26.922519882585565 ], [ 75.772313014885185, 26.922118610111784 ], [ 75.772149104501921, 26.921716607331057 ], [ 75.771987054496719, 26.921313934150053 ], [ 75.771826860041926, 26.920910653741114 ], [ 75.771668500044754, 26.920506832429172 ], [ 75.771511937242963, 26.920102539545894 ], [ 75.77135711843502, 26.919697847249726 ], [ 75.771203974843715, 26.919292830311075 ], [ 75.771052422610623, 26.918887565862235 ], [ 75.770902363418045, 26.91848213311183 ], [ 75.770753685234325, 26.918076613024553 ], [ 75.770606263177058, 26.917671087966799 ], [ 75.770459960487912, 26.917265641319904 ], [ 75.77031462961213, 26.916860357062642 ], [ 75.770170113374448, 26.916455319325593 ], [ 75.770026246242693, 26.916050611920138 ], [ 75.769882855669479, 26.915646317845482 ], [ 75.769739763501534, 26.915242518777632 ], [ 75.76959678744582, 26.914839294544269 ], [ 75.769453742581064, 26.914436722590423 ], [ 75.76931044290248, 26.914034877439619 ], [ 75.769166702887659, 26.913633830155831 ], [ 75.769022339071086, 26.913233647811492 ], [ 75.768877171614506, 26.912834392967273 ], [ 75.768731025860717, 26.912436123169066 ], [ 75.76858373385808, 26.912038890467876 ], [ 75.768435135843603, 26.911642740968169 ], [ 75.768285081672673, 26.911247714409967 ], [ 75.768133432183831, 26.910853843790001 ], [ 75.767980060488043, 26.910461155026571 ], [ 75.767824853172144, 26.910069666672808 ], [ 75.767667711407128, 26.909679389682204 ], [ 75.767508551953057, 26.909290327230028 ], [ 75.767347308052948, 26.908902474593596 ], [ 75.767183930209612, 26.908515819093648 ], [ 75.767018386839865, 26.908130340098673 ], [ 75.766850664802334, 26.907746009093042 ], [ 75.766680769795997, 26.907362789809351 ], [ 75.766508726627762, 26.906980638424486 ], [ 75.766334579348779, 26.90659950381826 ], [ 75.766158391260234, 26.906219327892806 ], [ 75.765980244790711, 26.905840045950082 ], [ 75.765800241248201, 26.905461587124343 ], [ 75.765618500451112, 26.905083874865671 ], [ 75.765435160243129, 26.90470682747014 ], [ 75.765250375898503, 26.904330358651805 ], [ 75.765064319424567, 26.903954378150917 ], [ 75.764877178769012, 26.903578792372862 ], [ 75.764689156940435, 26.903203505051614 ], [ 75.764500471051008, 26.902828417931534 ], [ 75.764311351290146, 26.902453431461151 ], [ 75.764122039839279, 26.902078445492492 ], [ 75.763932789736685, 26.901703359979681 ], [ 75.763743863702601, 26.901328075670538 ], [ 75.763555532934063, 26.900952494785216 ], [ 75.763368075879001, 26.900576521676232 ], [ 75.76318177699892, 26.900200063464549 ], [ 75.76299692552891, 26.899823030646715 ], [ 75.762813814243785, 26.899445337668965 ], [ 75.762632738238224, 26.899066903464 ], [ 75.762453993728514, 26.898687651947526 ], [ 75.762277876882933, 26.898307512471632 ], [ 75.762104682687195, 26.897926420233041 ], [ 75.761934703850571, 26.897544316634676 ], [ 75.761768229758317, 26.897161149599775 ], [ 75.761605545474382, 26.896776873838171 ], [ 75.76144693079894, 26.896391451065213 ], [ 75.761292659383628, 26.896004850173973 ], [ 75.761142997907797, 26.895617047362261 ], [ 75.760998205317378, 26.895228026216035 ], [ 75.76085853212868, 26.89483777775153 ], [ 75.76072421979805, 26.894446300418441 ], [ 75.760595500158004, 26.894053600066975 ], [ 75.760472594920486, 26.893659689881623 ], [ 75.760355715246916, 26.893264590284819 ], [ 75.760245061384481, 26.892868328813396 ], [ 75.760140822368058, 26.892470939970988 ], [ 75.76004317578635, 26.892072465059439 ], [ 75.759952287610759, 26.891672951992014 ], [ 75.759868312085246, 26.891272455090913 ], [ 75.759791391674753, 26.890871034871807 ], [ 75.759721657070173, 26.890468757817221 ], [ 75.75965922724663, 26.89006569614067 ], [ 75.759604209572331, 26.889661927543084 ], [ 75.759556699964506, 26.889257534962393 ], [ 75.759516783089026, 26.888852606317176 ], [ 75.759484532599402, 26.888447234244548 ], [ 75.759460011411406, 26.888041515832352 ], [ 75.759443272008582, 26.887635552345149 ], [ 75.759434356774122, 26.887229448943433 ], [ 75.759433298344049, 26.886823314394899 ], [ 75.759440119976745, 26.886417260776668 ], [ 75.759454835933454, 26.886011403166819 ], [ 75.759477451864228, 26.885605859323835 ], [ 75.759507965194103, 26.885200749352126 ], [ 75.759546365503667, 26.884796195351829 ], [ 75.759592634898794, 26.884392321051358 ], [ 75.759646748363892, 26.883989251421017 ], [ 75.759708674093588, 26.883587112266103 ], [ 75.759778373797772, 26.883186029798505 ], [ 75.759855802975366, 26.882786130185661 ], [ 75.759940911152341, 26.882387539076387 ], [ 75.760033642080359, 26.881990381103293 ], [ 75.760133933892575, 26.881594779362128 ], [ 75.760241719213937, 26.881200854868656 ], [ 75.760356925224002, 26.880808725994338 ], [ 75.760479473670813, 26.880418507882681 ], [ 75.76060928083561, 26.880030311848394 ], [ 75.760746257448318, 26.879644244762403 ], [ 75.760890308555204, 26.879260408426092 ], [ 75.761041333340785, 26.878878898938659 ], [ 75.761199224906449, 26.87849980606228 ], [ 75.761363870010115, 26.87812321258976 ], [ 75.761535148770918, 26.877749193720291 ], [ 75.761712934344658, 26.877377816448945 ], [ 75.761897092575964, 26.877009138975918 ], [ 75.762087481633785, 26.876643210141978 ], [ 75.762283951637798, 26.876280068896385 ], [ 75.762486344283204, 26.875919743803781 ], [ 75.762694492472463, 26.875562252596644 ], [ 75.762908219962213, 26.875207601779557 ], [ 75.76312734103395, 26.874855786291334 ], [ 75.763351660197387, 26.874506789230907 ], [ 75.763580971934772, 26.874160581652262 ], [ 75.763815060494622, 26.87381712243327 ], [ 75.764053699742917, 26.873476358222657 ], [ 75.764296653079143, 26.8731382234687 ], [ 75.764543673424086, 26.872802640532278 ], [ 75.764794503285842, 26.872469519886408 ], [ 75.765048874908999, 26.87213876040315 ], [ 75.765306510512119, 26.871810249728085 ], [ 75.765567122616403, 26.871483864741403 ], [ 75.765830414468724, 26.871159472103859 ], [ 75.76609608055999, 26.870836928884628 ], [ 75.766363807239387, 26.870516083267333 ], [ 75.766633273423736, 26.870196775329315 ], [ 75.766904151399984, 26.869878837888599 ], [ 75.767176107717816, 26.869562097411826 ], [ 75.76744880416841, 26.869246374975788 ], [ 75.767721898843917, 26.868931487274594 ], [ 75.767995047271867, 26.868617247663579 ], [ 75.768267903617229, 26.868303467230806 ], [ 75.768540121944426, 26.8679899558865 ], [ 75.768811357530581, 26.867676523460442 ], [ 75.769081268220901, 26.867362980797211 ], [ 75.769349515816131, 26.867049140839161 ], [ 75.769615767482335, 26.866734819687039 ], [ 75.769879697172016, 26.86641983762847 ], [ 75.770140987046062, 26.866104020124752 ], [ 75.770399328885674, 26.865787198747018 ], [ 75.770654425483343, 26.865469212053313 ], [ 75.770905992002312, 26.865149906398926 ], [ 75.771153757293789, 26.864829136672867 ], [ 75.771397465161954, 26.864506766954751 ], [ 75.771636875566884, 26.864182671086663 ], [ 75.771871765755776, 26.863856733156126 ], [ 75.772101931314282, 26.863528847887117 ], [ 75.772327187129207, 26.863198920937069 ], [ 75.772547368255459, 26.862866869099136 ], [ 75.772762330680379, 26.862532620409905 ], [ 75.772971951979244, 26.862196114163869 ], [ 75.773176131857369, 26.861857300836991 ], [ 75.773374792573648, 26.861516141922753 ], [ 75.773567879242663, 26.861172609684829 ], [ 75.773755360012586, 26.860826686831754 ], [ 75.773937226117013, 26.860478366119096 ], [ 75.774113491799952, 26.860127649885975 ], [ 75.774284194114216, 26.859774549532979 ], [ 75.77444939259388, 26.859419084948946 ], [ 75.774609168802883, 26.859061283894619 ], [ 75.774763625762276, 26.858701181351314 ], [ 75.774912887259845, 26.858338818842807 ], [ 75.775057097046371, 26.857974243738724 ], [ 75.77519641792388, 26.857607508547627 ], [ 75.775331030731621, 26.857238670207664 ], [ 75.775461133236561, 26.856867789382402 ], [ 75.775586938936129, 26.85649492976906 ], [ 75.775708675780635, 26.856120157425966 ], [ 75.775826584824586, 26.85574354012514 ], [ 75.775940918815849, 26.855365146735913 ], [ 75.776051940732359, 26.854985046644142 ], [ 75.776159922276477, 26.854603309211345 ], [ 75.776265142337536, 26.85422000327722 ], [ 75.776367885433018, 26.853835196708154 ], [ 75.776468440139439, 26.853448955993816 ], [ 75.776567097523781, 26.853061345892936 ], [ 75.776664149586438, 26.852672429128909 ], [ 75.776759887726385, 26.852282266134985 ], [ 75.776854601239293, 26.851890914848322 ], [ 75.776948575858825, 26.851498430551491 ], [ 75.77704209235111, 26.85110486575952 ], [ 75.777135425171522, 26.850710270150078 ], [ 75.777228841193022, 26.850314690534045 ], [ 75.777322598513777, 26.849918170863258 ], [ 75.777416945351618, 26.849520752272067 ], [ 75.777512119031911, 26.849122473149038 ], [ 75.777608345074356, 26.848723369235074 ], [ 75.77770583638366, 26.84832347374406 ], [ 75.777804792547329, 26.847922817502223 ], [ 75.777905399243792, 26.847521429102457 ], [ 75.778007827761996, 26.847119335069735 ], [ 75.778112234633596, 26.846716560034309 ], [ 75.778218761376522, 26.846313126909166 ], [ 75.778327534349202, 26.845909057068674 ], [ 75.778438664712525, 26.845504370525635 ], [ 75.778552248496169, 26.845099086104067 ], [ 75.778668366765103, 26.844693221605596 ], [ 75.778787085881063, 26.844286793967374 ], [ 75.77890845785322, 26.843879819410052 ], [ 75.779032520771423, 26.843472313574406 ], [ 75.779159299315069, 26.843064291645767 ], [ 75.779288805330083, 26.842655768465452 ], [ 75.779421038466069, 26.842246758628935 ], [ 75.779555986865518, 26.841837276570644 ], [ 75.779693627897046, 26.841427336635519 ], [ 75.779833928923964, 26.84101695313776 ], [ 75.779976848100432, 26.840606140407324 ], [ 75.780122335186647, 26.840194912824973 ], [ 75.780270332375778, 26.839783284846835 ], [ 75.780420775124597, 26.839371271019456 ], [ 75.780573592981284, 26.838958885986557 ], [ 75.78072871040348, 26.838546144488671 ], [ 75.780886047560557, 26.838133061356988 ], [ 75.781045521114919, 26.83771965150261 ], [ 75.781207044976981, 26.837305929902641 ], [ 75.781370531030177, 26.836891911584182 ], [ 75.78153588982201, 26.836477611607734 ], [ 75.78170303121847, 26.836063045050917 ], [ 75.781871865019482, 26.835648226993847 ], [ 75.782042301533949, 26.83523317250706 ], [ 75.782214252113107, 26.834817896643049 ], [ 75.782387629642258, 26.834402414432219 ], [ 75.782562348990439, 26.833986740883969 ], [ 75.782738327419381, 26.833570890993755 ], [ 75.782915484952227, 26.833154879756446 ], [ 75.78309374470399, 26.832738722186608 ], [ 75.783273033175277, 26.832322433345965 ], [ 75.783453280511765, 26.831906028378313 ], [ 75.783634420731346, 26.831489522551962 ], [ 75.783816391922002, 26.831072931309862 ], [ 75.783999136412575, 26.8306562703272 ], [ 75.784182600919394, 26.830239555576302 ], [ 75.784366736671402, 26.829822803398802 ], [ 75.784551499516368, 26.829406030584352 ], [ 75.784736850010603, 26.828989254455731 ], [ 75.784922753494897, 26.828572492959712 ], [ 75.785109180158443, 26.828155764763082 ], [ 75.785296105092982, 26.827739089353088 ], [ 75.785483508338842, 26.827322487141625 ], [ 75.785671374924206, 26.826905979572281 ], [ 75.785859694898932, 26.82648958922935 ], [ 75.786048463363599, 26.826073339947907 ], [ 75.786237680494509, 26.825657256923808 ], [ 75.786427351564598, 26.825241366822805 ], [ 75.786617486960594, 26.82482569788738 ], [ 75.786808102195636, 26.82441028004046 ], [ 75.786999217917042, 26.823995144984714 ], [ 75.787190859908094, 26.823580326296344 ], [ 75.787383059082956, 26.82316585951224 ], [ 75.787575851473079, 26.822751782209355 ], [ 75.787769278204038, 26.82233813407526 ], [ 75.787963385460685, 26.821924956968761 ], [ 75.788158224439371, 26.8215122949697 ], [ 75.788353851284995, 26.821100194416939 ], [ 75.788550327011691, 26.820688703933794 ], [ 75.788747717404704, 26.820277874440212 ], [ 75.788946092902549, 26.819867759151087 ], [ 75.789145528457198, 26.819458413560298 ], [ 75.789346103371571, 26.819049895410288 ], [ 75.789547901112613, 26.818642264646922 ], [ 75.78975100909949, 26.818235583359872 ], [ 75.789955518465902, 26.817829915708721 ], [ 75.790161523796385, 26.817425327835227 ], [ 75.79036912283658, 26.817021887762532 ], [ 75.790578416177823, 26.816619665282136 ], [ 75.790789506916511, 26.816218731829686 ], [ 75.791002500289991, 26.815819160350962 ], [ 75.79121750328973, 26.815421025159495 ], [ 75.79143462425418, 26.815024401787362 ], [ 75.791653972443257, 26.814629366831223 ], [ 75.791875657597302, 26.814235997795265 ], [ 75.792099789483231, 26.813844372933307 ], [ 75.792326477431232, 26.813454571092183 ], [ 75.792555829865478, 26.813066671558506 ], [ 75.792787953832544, 26.812680753911224 ], [ 75.793022954531608, 26.812296897881996 ], [ 75.793260934850096, 26.811915183225668 ], [ 75.793501994909349, 26.811535689602874 ], [ 75.793746231623956, 26.811158496476608 ], [ 75.793993738279184, 26.810783683024727 ], [ 75.794244604130242, 26.810411328069588 ], [ 75.794498914027329, 26.810041510026497 ], [ 75.794756748069773, 26.809674306871571 ], [ 75.795018181293045, 26.809309796129931 ], [ 75.795283283390916, 26.808948054884425 ], [ 75.795552118475996, 26.808589159804804 ], [ 75.795824744880335, 26.80823318719694 ], [ 75.796101214997961, 26.807880213071137 ], [ 75.796381575170514, 26.807530313228284 ], [ 75.796665865616589, 26.807183563362052 ], [ 75.796954120405019, 26.806840039175178 ], [ 75.797246367471502, 26.806499816507085 ], [ 75.797542628677888, 26.806162971470123 ], [ 75.79784291991237, 26.805829580591112 ], [ 75.798147251228826, 26.80549972095465 ], [ 75.798455627022662, 26.805173470344428 ], [ 75.798768046240355, 26.804850907378405 ], [ 75.799084502619351, 26.804532111633915 ], [ 75.799404984954663, 26.804217163758192 ], [ 75.799729477388041, 26.803906145560166 ], [ 75.800057959715701, 26.803599140079232 ], [ 75.800390407710125, 26.803296231626977 ], [ 75.800726793451346, 26.802997505797645 ], [ 75.80106708566322, 26.802703049444034 ], [ 75.801411250050137, 26.802412950615128 ], [ 75.801759249629654, 26.802127298452621 ], [ 75.802111045056833, 26.801846183043928 ], [ 75.802466594936092, 26.80156969522945 ], [ 75.802825856116613, 26.801297926362921 ], [ 75.803188783968196, 26.801030968023827 ], [ 75.803555332633906, 26.800768911681821 ], [ 75.803925455257144, 26.800511848313739 ], [ 75.804299104180714, 26.800259867974162 ], [ 75.804676231115948, 26.800013059321746 ], [ 75.805056787280776, 26.799771509103827 ], [ 75.805440723505697, 26.79953530160245 ], [ 75.805827990307435, 26.799304518046124 ], [ 75.806218537930292, 26.799079235991695 ], [ 75.806612316355952, 26.798859528681504 ], [ 75.807009275282837, 26.798645464381856 ], [ 75.807409364076406, 26.798437105708711 ], [ 75.807812531692363, 26.798234508947452 ], [ 75.808218726575348, 26.798037723373579 ], [ 75.808627896535214, 26.797846790581655 ], [ 75.80903998860434, 26.797661743829789 ], [ 75.809454948878695, 26.797482607407208 ], [ 75.809872722346228, 26.797309396032368 ], [ 75.810293252705904, 26.797142114288807 ], [ 75.810716482180979, 26.796980756106144 ], [ 75.811142351330005, 26.796825304292799 ], [ 75.811570798859051, 26.796675730127085 ], [ 75.812001761438836, 26.796531993012614 ], [ 75.812435173529778, 26.796394040203509 ], [ 75.812870967218359, 26.796261806604164 ], [ 75.81330907206781, 26.796135214647904 ], [ 75.813749414985693, 26.796014174257735 ], [ 75.814191920111043, 26.795898582892065 ], [ 75.814636508723368, 26.795788325676863 ], [ 75.81508309917497, 26.795683275625542 ], [ 75.815531606848893, 26.795583293946272 ], [ 75.815981944143047, 26.795488230436046 ], [ 75.816434020481893, 26.795397923959616 ], [ 75.81688774235613, 26.795312203010571 ], [ 75.817343013390612, 26.79523088635117 ], [ 75.817799734440413, 26.795153783726033 ], [ 75.818257803714701, 26.795080696645037 ], [ 75.818717116927701, 26.795011419228601 ], [ 75.819177567475677, 26.794945739109192 ], [ 75.81963904663877, 26.79488343838111 ], [ 75.820101443806038, 26.794824294590537 ], [ 75.820564646722204, 26.794768081757326 ], [ 75.821028541753861, 26.79471457141922 ], [ 75.821493014173214, 26.794663533689057 ], [ 75.82195794845704, 26.794614738315246 ], [ 75.822423228598467, 26.79456795573557 ], [ 75.822888738429057, 26.794522958114083 ], [ 75.823354361948731, 26.794479520351452 ], [ 75.823819983660798, 26.794437421058557 ], [ 75.824285488909624, 26.794396443483958 ], [ 75.824750764218308, 26.794356376385952 ], [ 75.825215697623776, 26.794317014840367 ], [ 75.825680179006866, 26.794278160976106 ], [ 75.82614410041495, 26.794239624630858 ], [ 75.826607356374922, 26.794201223920293 ], [ 75.827069844194327, 26.794162785715159 ], [ 75.827531464248622, 26.794124146021307 ], [ 75.827992120252787, 26.794085150259136 ], [ 75.828451719515769, 26.794045653439891 ], [ 75.828910173175942, 26.794005520237395 ], [ 75.829367396416998, 26.793964624955361 ], [ 75.829823308662554, 26.793922851391368 ], [ 75.830277833749221, 26.79388009260013 ], [ 75.830730900077342, 26.793836250559902 ], [ 75.831182440739269, 26.793791235747282 ], [ 75.831632393624744, 26.793744966626736 ], [ 75.832080701503941, 26.793697369062478 ], [ 75.832527312088317, 26.793648375661668 ], [ 75.832972178069724, 26.79359792505841 ], [ 75.833415257138824, 26.793545961149704 ], [ 75.833856511983427, 26.793492432294535 ], [ 75.834295910268125, 26.793437290488551 ], [ 75.834733424596251, 26.793380490526925 ], [ 75.835169032455752, 26.79332198916854 ], [ 75.835602716150078, 26.793261744314574 ], [ 75.836034462716142, 26.793199714214857 ], [ 75.836464263830379, 26.793135856714681 ], [ 75.836892115705012, 26.79307012855487 ], [ 75.83731801897585, 26.793002484736881 ], [ 75.837741978583367, 26.79293287796413 ], [ 75.838164003648586, 26.792861258169726 ], [ 75.83858410734527, 26.79278757213962 ], [ 75.839002306769885, 26.792711763239055 ], [ 75.839418622810655, 26.79263377124856 ], [ 75.839833080016916, 26.792553532314361 ], [ 75.840245706469915, 26.792470979016475 ], [ 75.840656533655775, 26.792386040555989 ], [ 75.84106559634192, 26.792298643061361 ], [ 75.841472932457094, 26.792208710011796 ], [ 75.841878582975795, 26.792116162774171 ], [ 75.842282591807475, 26.792020921248035 ], [ 75.842685005690583, 26.791922904611852 ], [ 75.843085874091557, 26.791822032162052 ], [ 75.843485249108923, 26.791718224234899 ], [ 75.843883185381912, 26.791611403200125 ], [ 75.844279740003657, 26.791501494513973 ], [ 75.844674972438298, 26.791388427818546 ], [ 75.845068944441607, 26.79127213807331 ], [ 75.845461719984598, 26.791152566704223 ], [ 75.84585336517921, 26.791029662755722 ], [ 75.846243948205625, 26.790903384030191 ], [ 75.846633539240386, 26.79077369819997 ], [ 75.847022210384239, 26.790640583877195 ], [ 75.847410035589306, 26.790504031626792 ], [ 75.847797090584521, 26.790364044909143 ], [ 75.848183452798409, 26.790220640939207 ], [ 75.848569201278565, 26.79007385145022 ], [ 75.848954416606844, 26.789923723350981 ], [ 75.849339180809636, 26.789770319266903 ], [ 75.84972357726231, 26.789613717956659 ], [ 75.850107690587066, 26.789454014597162 ], [ 75.850491606543684, 26.789291320931504 ], [ 75.85087541191227, 26.789125765275806 ], [ 75.851259194367529, 26.788957492382462 ], [ 75.851643042344108, 26.788786663158742 ], [ 75.852027044892239, 26.788613454241531 ], [ 75.85241129152358, 26.788438057429911 ], [ 75.852795872046713, 26.788260678979324 ], [ 75.853180876392173, 26.788081538761936 ], [ 75.853566394426664, 26.787900869299467 ], [ 75.853952515756774, 26.787718914675608 ], [ 75.854339329521878, 26.787535929336521 ], [ 75.854726924176489, 26.787352176788811 ], [ 75.855115387262629, 26.787167928205072 ], [ 75.855504805172387, 26.786983460948225 ], [ 75.855895262901299, 26.786799057026094 ], [ 75.856286843793484, 26.786615001488535 ], [ 75.856679629279256, 26.786431580779642 ], [ 75.8570736986063, 26.786249081057832 ], [ 75.857469128565768, 26.786067786496972 ], [ 75.857865993214602, 26.78588797758151 ], [ 75.858264363595509, 26.785709929408824 ], [ 75.858664307456607, 26.785533910011395 ], [ 75.859065888972196, 26.785360178711905 ], [ 75.85946916846693, 26.785188984523153 ], [ 75.859874202145349, 26.78502056460491 ], [ 75.86028104182887, 26.784855142789102 ], [ 75.860689734702618, 26.784692928184015 ], [ 75.86110032307441, 26.784534113867871 ], [ 75.861512844148081, 26.784378875680947 ], [ 75.861927329813568, 26.784227371125226 ], [ 75.86234380645611, 26.784079738379194 ], [ 75.862762294786563, 26.7839360954349 ], [ 75.863182809695317, 26.783796539363273 ], [ 75.863605360131473, 26.783661145712863 ], [ 75.864029949009378, 26.783529968046235 ], [ 75.864456573144125, 26.783403037617003 ], [ 75.864885223217385, 26.783280363189849 ], [ 75.865315883775011, 26.783161931004528 ], [ 75.865748533257218, 26.783047704884087 ], [ 75.866183144062006, 26.782937626486255 ], [ 75.866619682642479, 26.78283161569631 ], [ 75.867058109637796, 26.782729571158306 ], [ 75.86749838003783, 26.782631370940944 ], [ 75.867940443380917, 26.782536873333274 ], [ 75.868384243983712, 26.782445917764505 ], [ 75.868829721202317, 26.782358325841496 ], [ 75.869276809722678, 26.782273902496417 ], [ 75.869725439879161, 26.782192437236709 ], [ 75.870175537998847, 26.782113705488445 ], [ 75.870627026769185, 26.782037470023806 ], [ 75.871079825627021, 26.781963482462661 ], [ 75.871533851165736, 26.781891484837956 ], [ 75.871989017558008, 26.781821211214162 ], [ 75.872445236990913, 26.781752389347481 ], [ 75.87290242011062, 26.781684742376811 ], [ 75.873360476472953, 26.781617990533725 ], [ 75.873819314997277, 26.781551852860076 ], [ 75.874278844419663, 26.781486048921739 ], [ 75.874738973743092, 26.781420300506969 ], [ 75.875199612680603, 26.781354333298321 ], [ 75.875660672089055, 26.781287878506983 ], [ 75.876122064390231, 26.781220674459167 ], [ 75.876583703976635, 26.781152468123981 ], [ 75.877045507599277, 26.781083016573426 ], [ 75.877507394735204, 26.781012088365074 ], [ 75.877969287932459, 26.780939464838877 ], [ 75.87843111313056, 26.780864941320214 ], [ 75.878892799954812, 26.780788328221874 ], [ 75.879354281982941, 26.780709452038352 ], [ 75.879815496982886, 26.780628156226928 ], [ 75.880276387120787, 26.780544301970274 ], [ 75.880736899138597, 26.780457768816738 ], [ 75.881196984500676, 26.780368455194811 ], [ 75.881656599509512, 26.780276278799388 ], [ 75.882115705390362, 26.780181176848281 ], [ 75.882574268345408, 26.780083106208167 ], [ 75.883032259577689, 26.779982043390167 ], [ 75.883489655285913, 26.779877984416036 ], [ 75.883946436630694, 26.779770944556706 ], [ 75.884402589673797, 26.779660957945847 ], [ 75.884858105291187, 26.779548077071905 ], [ 75.885312979061851, 26.779432372152748 ], [ 75.885767211133356, 26.779313930397894 ], [ 75.886220806066333, 26.779192855163998 ], [ 75.886673772659293, 26.779069265009831 ], [ 75.88712612375565, 26.778943292657797 ], [ 75.887577876034754, 26.778815083869638 ], [ 75.888029049789083, 26.778684796244132 ], [ 75.888479668688902, 26.778552597945847 ], [ 75.888929759536921, 26.778418666373614 ], [ 75.889379352014245, 26.778283186778513 ], [ 75.889828478419901, 26.778146350841052 ], [ 75.890277173405295, 26.778008355217626 ], [ 75.890725473705601, 26.777869400066773 ], [ 75.891173417869709, 26.777729687565511 ], [ 75.891621045990036, 26.777589420426509 ], [ 75.892068399434095, 26.777448800426644 ], [ 75.892515520578911, 26.777308026957506 ], [ 75.892962452549625, 26.777167295608219 ], [ 75.893409238963642, 26.777026796790928 ], [ 75.8938559236814, 26.776886714418694 ], [ 75.894302550564447, 26.776747224645494 ], [ 75.894749163242338, 26.776608494677248 ], [ 75.895195804888459, 26.776470681662655 ], [ 75.895642518006071, 26.776333931671481 ], [ 75.896089344224748, 26.776198378767777 ], [ 75.896536324107913, 26.776064144184328 ], [ 75.896983496971856, 26.775931335604074 ], [ 75.897430900716458, 26.775800046553094 ], [ 75.897878571667846, 26.775670355908982 ], [ 75.898326544433218, 26.775542327527408 ], [ 75.898774851767712, 26.775416009988319 ], [ 75.899223524453262, 26.775291436462709 ], [ 75.899672591189614, 26.77516862469912 ], [ 75.900122078496807, 26.77504757712855 ], [ 75.900572010629347, 26.774928281084769 ], [ 75.901022409501181, 26.774810709136453 ], [ 75.901473294621738, 26.774694819526164 ], [ 75.901924683041869, 26.774580556710269 ], [ 75.902376589309739, 26.774467851992963 ], [ 75.902829025435722, 26.774356624246877 ], [ 75.9032820008659, 26.774246780711355 ], [ 75.903735522463393, 26.774138217859647 ], [ 75.904189594496984, 26.774030822324765 ], [ 75.904644218636221, 26.773924471874125 ], [ 75.905099393952298, 26.773819036421951 ], [ 75.905555116924134, 26.77371437906881 ], [ 75.90601138144865, 26.773610357157203 ], [ 75.906468178854965, 26.773506823332259 ], [ 75.906925497921364, 26.773403626596817 ], [ 75.907383324894667, 26.773300613350351 ], [ 75.907841643511375, 26.773197628401793 ], [ 75.908300435019768, 26.773094515946731 ], [ 75.908759678202813, 26.772991120500159 ], [ 75.909219349400985, 26.772887287776786 ], [ 75.909679422534978, 26.772782865511765 ], [ 75.91013986912769, 26.772677704215532 ], [ 75.910600658325492, 26.772571657857689 ], [ 75.911061756918386, 26.772464584475678 ], [ 75.911523129358969, 26.772356346705347 ], [ 75.911984737780585, 26.772246812231391 ], [ 75.912446542014138, 26.772135854156893 ], [ 75.912908499604328, 26.772023351292482 ], [ 75.913370565825176, 26.771909188366244 ], [ 75.913832693695255, 26.77179325615705 ], [ 75.914294833993296, 26.771675451554707 ], [ 75.914756935274013, 26.771555677551202 ], [ 75.915218943885378, 26.771433843168303 ], [ 75.915680803987271, 26.771309863327421 ], [ 75.916142457572377, 26.771183658668249 ], [ 75.916603844489785, 26.771055155323324 ], [ 75.917064902471779, 26.770924284655941 ], [ 75.917525567164404, 26.77079098296926 ], [ 75.917985772162098, 26.770655191194603 ], [ 75.918445449046956, 26.770516854566985 ], [ 75.918904527432645, 26.770375922295781 ], [ 75.919362935013424, 26.770232347238615 ], [ 75.919820597617928, 26.770086085585849 ], [ 75.92027743926792, 26.769937096562959 ], [ 75.920733382241536, 26.769785342157718 ], [ 75.921188347140557, 26.76963078687827 ], [ 75.921642252961149, 26.769473397547952 ], [ 75.922095017167052, 26.76931314314168 ], [ 75.922546555764413, 26.769149994668471 ], [ 75.922996783376718, 26.768983925103427 ], [ 75.923445613318535, 26.768814909372157 ], [ 75.923892957666567, 26.768642924389617 ], [ 75.924338727325818, 26.768467949154523 ], [ 75.924782832089406, 26.768289964899946 ], [ 75.925225180689495, 26.768108955299621 ], [ 75.925665680837511, 26.76792490672895 ], [ 75.926104239251146, 26.767737808578957 ], [ 75.92654076166589, 26.767547653620646 ], [ 75.926975152829058, 26.767354438416731 ], [ 75.927407316473747, 26.767158163777005 ], [ 75.927837155270808, 26.766958835253117 ], [ 75.928264570756895, 26.766756463668077 ], [ 75.928689463236694, 26.766551065675369 ], [ 75.929111731657954, 26.766342664342094 ], [ 75.929531273458196, 26.766131289750501 ], [ 75.92994798438194, 26.765916979611688 ], [ 75.930361758268589, 26.765699779885384 ], [ 75.930772486810511, 26.765479745399386 ], [ 75.931180059282298, 26.765256940462201 ], [ 75.931584362241836, 26.765031439462522 ], [ 75.931985279205364, 26.764803327448938 ], [ 75.932382690298425, 26.764572700683619 ], [ 75.932776471885717, 26.764339667163771 ], [ 75.933166496183119, 26.764104347104588 ], [ 75.933552630856468, 26.763866873377893 ], [ 75.933934738611129, 26.763627391900776 ], [ 75.934312676778063, 26.763386061968752 ], [ 75.934686296901987, 26.763143056528385 ], [ 75.935055444337834, 26.762898562384379 ], [ 75.935419957862464, 26.762652780336975 ], [ 75.935779669308133, 26.762405925245186 ], [ 75.936134403225665, 26.762158226012549 ], [ 75.936483976584228, 26.761909925491846 ], [ 75.936828198515684, 26.761661280306285 ], [ 75.937166870110829, 26.761412560584553 ], [ 75.937499784275062, 26.761164049608251 ], [ 75.937826725650481, 26.760916043370266 ], [ 75.938147470611426, 26.760668850043452 ], [ 75.938461787339619, 26.760422789359733 ], [ 75.938769435984526, 26.76017819189984 ], [ 75.939070168914185, 26.759935398295273 ], [ 75.939363731060368, 26.759694758344029 ], [ 75.939649860361527, 26.759456630042845 ], [ 75.939928288305495, 26.759221378539152 ], [ 75.940198740573237, 26.758989375006696 ], [ 75.940460937783456, 26.758760995449471 ], [ 75.94071459633669, 26.758536619439479 ], [ 75.940959429356511, 26.758316628794216 ], [ 75.941195147723761, 26.75810140620084 ], [ 75.941421461198786, 26.757891333794426 ], [ 75.941638079625207, 26.757686791698205 ], [ 75.941844714207619, 26.757488156534762 ], [ 75.942041078854388, 26.75729579991707 ], [ 75.942226891575629, 26.75711008692922 ], [ 75.942401875925427, 26.756931374606811 ], [ 75.942565762476505, 26.756760010427428 ], [ 75.942718290314886, 26.75659633082174 ], [ 75.942859208541066, 26.756440659716059 ], [ 75.942988277764528, 26.756293307117026 ], [ 75.943105271577124, 26.756154567749256 ], [ 75.943209977991756, 26.75602471975618 ], [ 75.943302200832008, 26.755904023474692 ], [ 75.943381761059015, 26.755792720292892 ], [ 75.943448498022519, 26.755691031600595 ], [ 75.943502270622872, 26.75559915784093 ], [ 75.943542958372419, 26.755517277670982 ], [ 75.943570462344994, 26.75544554723847 ], [ 75.94358470600352, 26.755384099580436 ], [ 75.943585635896966, 26.755333044149033 ], [ 75.943573222219285, 26.755292466468369 ], [ 75.943547459224263, 26.755262427925032 ], [ 75.943508365491525, 26.75524296569407 ], [ 75.943455984041051, 26.75523409280062 ], [ 75.943390382294766, 26.755235798316395 ], [ 75.943311651885125, 26.755248047688884 ], [ 75.943219908312969, 26.755270783200029 ], [ 75.943115290457769, 26.755303924549722 ], [ 75.942997959945089, 26.755347369558724 ], [ 75.942868100378035, 26.755400994984189 ], [ 75.942725916439727, 26.75546465744025 ], [ 75.942571632876223, 26.75553819441512 ], [ 75.942405493369606, 26.755621425375459 ], [ 75.942227759312274, 26.755714152948038 ], [ 75.942038708494181, 26.755816164168305 ], [ 75.941838633715321, 26.755927231784806 ], [ 75.941627841336455, 26.756047115608506 ], [ 75.941406649781229, 26.756175563895546 ], [ 75.941175388002918, 26.756312314752101 ], [ 75.940934393929311, 26.756457097550243 ], [ 75.940684012898515, 26.756609634343654 ], [ 75.940424596098964, 26.756769641272637 ], [ 75.940156499025548, 26.756936829948231 ], [ 75.939880079963785, 26.757110908805711 ], [ 75.939595698513159, 26.757291584418574 ], [ 75.939303714159635, 26.757478562764707 ], [ 75.93900448490686, 26.757671550437131 ], [ 75.938698365974261, 26.75787025579282 ], [ 75.938385708569598, 26.758074390033645 ], [ 75.938066858742005, 26.758283668214624 ], [ 75.937742156321036, 26.758497810175367 ], [ 75.937411933945498, 26.758716541391731 ], [ 75.937076516185769, 26.758939593745282 ], [ 75.936736218760927, 26.759166706209296 ], [ 75.936391347852449, 26.759397625450717 ], [ 75.936042199514247, 26.759632106348217 ], [ 75.935689059178358, 26.759869912427401 ], [ 75.935332201254951, 26.760110816214581 ], [ 75.934971888824094, 26.760354599511452 ], [ 75.934608373416665, 26.760601053593323 ], [ 75.934241894880714, 26.760849979333955 ], [ 75.933872681329476, 26.761101187260774 ], [ 75.933500949166628, 26.761354497544009 ], [ 75.933126903184203, 26.761609739924058 ], [ 75.932750736728309, 26.761866753581202 ], [ 75.932372631927649, 26.762125386952039 ], [ 75.931992759979906, 26.76238549749695 ], [ 75.931611281490774, 26.762646951422973 ], [ 75.931228346861019, 26.762909623366333 ], [ 75.930844096716314, 26.763173396038798 ], [ 75.930458662375656, 26.763438159841684 ], [ 75.930072166353568, 26.763703812451485 ], [ 75.929684722892361, 26.7639702583805 ], [ 75.929296438520055, 26.764237408515822 ], [ 75.928907412630892, 26.764505179639663 ], [ 75.928517738084864, 26.764773493933895 ], [ 75.928127501823397, 26.765042278471146 ], [ 75.92773678549861, 26.765311464694779 ], [ 75.927345666113666, 26.76558098788971 ], [ 75.926954216672229, 26.765850786645679 ], [ 75.926562506835324, 26.766120802314735 ], [ 75.92617060358377, 26.766390978463953 ], [ 75.925778571884948, 26.766661260324707 ], [ 75.925386475362799, 26.76693159423947 ] ] } }
]
}
