{"type": "FeatureCollection", "properties": {"length_km": 41.24, "note": "Flow and chainage both run north to south; hydraulic index increases downstream."}, "features": [{"type": "Feature", "properties": {"kind": "terminus", "label_en": "North terminus", "label_hi": "\u0909\u0924\u094d\u0924\u0930\u0940 \u091b\u094b\u0930", "sub_en": "chainage 0 \u00b7 reported as Majar Dam", "sub_hi": "\u091a\u0947\u0928\u0947\u091c 0 \u00b7 \u092a\u094d\u0930\u0947\u0938 \u0905\u0928\u0941\u0938\u093e\u0930 \u092e\u093e\u091c\u0930 \u092c\u093e\u0902\u0927", "chainage_m": 0}, "geometry": {"type": "Point", "coordinates": [75.790924, 26.957441]}}, {"type": "Feature", "properties": {"kind": "terminus", "label_en": "South terminus", "label_hi": "\u0926\u0915\u094d\u0937\u093f\u0923\u0940 \u091b\u094b\u0930", "sub_en": "chainage 41.2 km \u00b7 NH-148C crossing", "sub_hi": "\u091a\u0947\u0928\u0947\u091c 41.2 \u0915\u093f\u092e\u0940 \u00b7 NH-148C \u0915\u094d\u0930\u0949\u0938\u093f\u0902\u0917", "chainage_m": 41241}, "geometry": {"type": "Point", "coordinates": [75.925386, 26.766932]}}, {"type": "Feature", "properties": {"kind": "km", "label_en": "5k", "label_hi": "5k", "chainage_m": 5000}, "geometry": {"type": "Point", "coordinates": [75.770325, 26.921769]}}, {"type": "Feature", "properties": {"kind": "km", "label_en": "10k", "label_hi": "10k", "chainage_m": 10000}, "geometry": {"type": "Point", "coordinates": [75.758464, 26.881735]}}, {"type": "Feature", "properties": {"kind": "km", "label_en": "15k", "label_hi": "15k", "chainage_m": 15000}, "geometry": {"type": "Point", "coordinates": [75.776731, 26.846549]}}, {"type": "Feature", "properties": {"kind": "km", "label_en": "20k", "label_hi": "20k", "chainage_m": 20000}, "geometry": {"type": "Point", "coordinates": [75.79601, 26.805141]}}, {"type": "Feature", "properties": {"kind": "km", "label_en": "25k", "label_hi": "25k", "chainage_m": 25000}, "geometry": {"type": "Point", "coordinates": [75.839725, 26.791255]}}, {"type": "Feature", "properties": {"kind": "km", "label_en": "30k", "label_hi": "30k", "chainage_m": 30000}, "geometry": {"type": "Point", "coordinates": [75.881687, 26.782637]}}, {"type": "Feature", "properties": {"kind": "km", "label_en": "35k", "label_hi": "35k", "chainage_m": 35000}, "geometry": {"type": "Point", "coordinates": [75.927001, 26.768209]}}, {"type": "Feature", "properties": {"kind": "km", "label_en": "40k", "label_hi": "40k", "chainage_m": 40000}, "geometry": {"type": "Point", "coordinates": [75.93528, 26.760096]}}, {"type": "Feature", "properties": {"kind": "hotspot", "chainage_m": 28150, "label_en": "27.9\u201328.4 km", "label_hi": "27.9\u201328.4 \u0915\u093f\u092e\u0940", "sub_en": "Existing elevated structure", "sub_hi": "Existing elevated structure", "composite": 1.043}, "geometry": {"type": "Point", "coordinates": [75.863261, 26.780304]}}, {"type": "Feature", "properties": {"kind": "hotspot", "chainage_m": 2550, "label_en": "2.4\u20132.7 km", "label_hi": "2.4\u20132.7 \u0915\u093f\u092e\u0940", "sub_en": "Metro interface", "sub_hi": "Metro interface", "composite": 1.026}, "geometry": {"type": "Point", "coordinates": [75.780921, 26.939766]}}, {"type": "Feature", "properties": {"kind": "hotspot", "chainage_m": 33750, "label_en": "33.6\u201333.9 km", "label_hi": "33.6\u201333.9 \u0915\u093f\u092e\u0940", "sub_en": "EHT line crossing", "sub_hi": "EHT line crossing", "composite": 0.898}, "geometry": {"type": "Point", "coordinates": [75.915208, 26.772121]}}, {"type": "Feature", "properties": {"kind": "hotspot", "chainage_m": 8000, "label_en": "7.9\u20138.1 km", "label_hi": "7.9\u20138.1 \u0915\u093f\u092e\u0940", "sub_en": "Existing elevated structure", "sub_hi": "Existing elevated structure", "composite": 0.884}, "geometry": {"type": "Point", "coordinates": [75.760911, 26.898676]}}, {"type": "Feature", "properties": {"kind": "hotspot", "chainage_m": 30650, "label_en": "30.5\u201330.8 km", "label_hi": "30.5\u201330.8 \u0915\u093f\u092e\u0940", "sub_en": "EHT line crossing", "sub_hi": "EHT line crossing", "composite": 0.87}, "geometry": {"type": "Point", "coordinates": [75.887362, 26.779894]}}, {"type": "Feature", "properties": {"kind": "hotspot", "chainage_m": 41200, "label_en": "41.1\u201341.3 km", "label_hi": "41.1\u201341.3 \u0915\u093f\u092e\u0940", "sub_en": "Existing elevated structure", "sub_hi": "Existing elevated structure", "composite": 0.615}, "geometry": {"type": "Point", "coordinates": [75.925716, 26.766704]}}]}