{"type": "FeatureCollection", "properties": {"source": "OpenStreetMap", "query": "way[natural=water][water=river], name ~ Dravyavati|Amanishah, bbox Jaipur", "access_date": "2026-08-18", "license": "ODbL \u2014 \u00a9 OpenStreetMap contributors", "note": "Real, cite-able river channel geometry. Not the reconstructed 36 km corridor alignment (that is pack Session 2 scope) \u2014 segments as currently mapped in OSM."}, "features": [{"type": "Feature", "properties": {"osm_id": 261520236, "name": "Amanishah Nala", "natural": "water", "water": null}, "geometry": {"type": "LineString", "coordinates": [[75.7792276, 26.9468054], [75.7797426, 26.9470541], [75.7800644, 26.9472645], [75.7804914, 26.9474567], [75.7808798, 26.9475131], [75.7812875, 26.9474557], [75.782381, 26.9473318], [75.7823914, 26.947308], [75.7824518, 26.9471713], [75.7824652, 26.947141], [75.7820648, 26.9470597], [75.7817949, 26.9466879], [75.7813345, 26.9466308], [75.781098, 26.9465536], [75.780797, 26.946334], [75.7805357, 26.9460117], [75.7804325, 26.9457317], [75.780406, 26.9454368], [75.7803648, 26.9451221], [75.7805787, 26.944369], [75.7808491, 26.9439592], [75.781209, 26.9437709], [75.7814632, 26.9436329], [75.7817381, 26.9435941], [75.7816145, 26.9451235], [75.781829, 26.9453041], [75.7819956, 26.9424633], [75.7821673, 26.9421763], [75.7823604, 26.9419085], [75.7827681, 26.9414112], [75.7829591, 26.9411252], [75.7828867, 26.940788], [75.7818492, 26.9404562], [75.7816986, 26.940408], [75.7815632, 26.9406536], [75.7809854, 26.9406058], [75.7809023, 26.9408563], [75.7808468, 26.9409631], [75.7807467, 26.9410024], [75.7806248, 26.9409232], [75.7805997, 26.940612], [75.780492, 26.9405976], [75.7803486, 26.9405293], [75.7801848, 26.9403955], [75.7798069, 26.9401295], [75.779292, 26.9401487], [75.7794598, 26.9402774], [75.7798451, 26.9406846], [75.7798877, 26.9409639], [75.7800623, 26.9411635], [75.780382, 26.9413819], [75.7803391, 26.941761], [75.7803811, 26.9422555], [75.7802922, 26.9434604], [75.7803145, 26.9441075], [75.7799149, 26.9442772], [75.7798906, 26.9444536], [75.7799335, 26.9448744], [75.7799357, 26.9453134], [75.7796997, 26.945849], [75.7796782, 26.946155], [75.7793992, 26.9464611], [75.7792276, 26.9468054]]}}, {"type": "Feature", "properties": {"osm_id": 866730577, "name": "Dravyavati River", "natural": "water", "water": "river"}, "geometry": {"type": "LineString", "coordinates": [[75.7909177, 26.9575243], [75.790975, 26.9574885], [75.7910078, 26.95744], [75.7910216, 26.9573561], [75.7909829, 26.9572376], [75.790969, 26.9570895], [75.7910106, 26.95686], [75.7910521, 26.9567539], [75.7911656, 26.9565046], [75.7913069, 26.9562503], [75.7913955, 26.9560924], [75.7914592, 26.9559171], [75.7914979, 26.9557296], [75.7915035, 26.9555741], [75.7914924, 26.955421], [75.7914564, 26.9552384], [75.7913997, 26.9550791], [75.7912304, 26.9548974], [75.7910736, 26.9547605], [75.7909419, 26.9546962], [75.7907601, 26.9546319], [75.7904214, 26.9545956], [75.7899449, 26.954562], [75.7890952, 26.9544167], [75.7890387, 26.954386], [75.788976, 26.9543217], [75.7885997, 26.9538969], [75.7885715, 26.9538298], [75.7885747, 26.9537376], [75.7885653, 26.9534581], [75.7885088, 26.9531562], [75.7884148, 26.95286], [75.7881859, 26.952273], [75.7881482, 26.9522143], [75.7881545, 26.9521417], [75.788142, 26.9520187], [75.7881671, 26.9518901], [75.7881702, 26.9517895], [75.7881388, 26.9516945], [75.7880824, 26.9515212], [75.7879507, 26.9512389], [75.7877218, 26.9509399], [75.7875431, 26.9507945], [75.7872233, 26.9505346], [75.7872293, 26.9504558], [75.7871152, 26.9503687], [75.7868675, 26.9504732], [75.7870035, 26.950564], [75.7871427, 26.9506111], [75.7872954, 26.9507554], [75.7875556, 26.950965], [75.7877155, 26.9511411], [75.7878253, 26.9513032], [75.7879695, 26.9516023], [75.7880228, 26.9517196], [75.7880228, 26.9519125], [75.7880103, 26.9521221], [75.788026, 26.9522367], [75.7880636, 26.9523653], [75.7881576, 26.9525469], [75.7882768, 26.9528432], [75.7883301, 26.9530081], [75.7884336, 26.9534217], [75.7884649, 26.9536928], [75.7884618, 26.953827], [75.7884931, 26.9539416], [75.788559, 26.954045], [75.788838, 26.9543552], [75.7889509, 26.9544726], [75.7890324, 26.9545201], [75.7894839, 26.9545956], [75.789926, 26.9546766], [75.7905563, 26.9547297], [75.7907287, 26.9547493], [75.7909137, 26.954808], [75.7911614, 26.9550008], [75.7912743, 26.9551182], [75.7913558, 26.9553194], [75.7913778, 26.9555458], [75.7913715, 26.9558029], [75.7913025, 26.9560125], [75.7912022, 26.9561914], [75.7910454, 26.9564262], [75.7909043, 26.9566442], [75.7908353, 26.9569125], [75.7908165, 26.9571277], [75.7908353, 26.9573177], [75.7909177, 26.9575243]]}}, {"type": "Feature", "properties": {"osm_id": 866730579, "name": "Dravyavati River", "natural": "water", "water": "river"}, "geometry": {"type": "LineString", "coordinates": [[75.7868708, 26.9503919], [75.7868675, 26.9504732], [75.7869676, 26.9504259], [75.7871152, 26.9503687], [75.7870791, 26.9503495], [75.7869464, 26.9503245], [75.7868125, 26.9501974], [75.7866376, 26.9500781], [75.7864886, 26.9499972], [75.7862402, 26.9499163], [75.7860048, 26.9498143], [75.785696, 26.9497585], [75.7853374, 26.9497296], [75.7851625, 26.9496738], [75.7849833, 26.9496006], [75.7847198, 26.9495236], [75.7844671, 26.9494004], [75.7842101, 26.9493003], [75.7840654, 26.9492676], [75.783573, 26.9491347], [75.7835082, 26.9490789], [75.7834239, 26.9489691], [75.7832641, 26.9487824], [75.7832382, 26.9487015], [75.7832252, 26.9485899], [75.7831605, 26.9483877], [75.7831432, 26.9482125], [75.7831259, 26.9479565], [75.7831237, 26.9478333], [75.7831389, 26.9476408], [75.7831324, 26.9475599], [75.7831021, 26.9474771], [75.7830589, 26.9473886], [75.7829639, 26.9473135], [75.782789, 26.9472422], [75.7826443, 26.947223], [75.7824518, 26.9471713], [75.7823914, 26.947308], [75.7824564, 26.9473077], [75.78264, 26.9473462], [75.7827566, 26.9473693], [75.7828495, 26.947402], [75.7829229, 26.9474502], [75.7829769, 26.9475214], [75.7829942, 26.9475869], [75.7830114, 26.9476735], [75.7829942, 26.9477678], [75.782992, 26.9478872], [75.7830093, 26.9482722], [75.7831086, 26.9487112], [75.7831583, 26.9488382], [75.7833635, 26.9490981], [75.7834801, 26.9492233], [75.7835514, 26.9492599], [75.7836917, 26.9492926], [75.7840805, 26.9493965], [75.7841345, 26.9494485], [75.7842252, 26.9494812], [75.7842921, 26.949462], [75.7846118, 26.9496141], [75.7847133, 26.9496487], [75.7848018, 26.9496622], [75.7849401, 26.9497046], [75.7850351, 26.9497585], [75.7851452, 26.9498047], [75.785264, 26.9498413], [75.7853137, 26.949849], [75.7855037, 26.9498663], [75.7858882, 26.9499029], [75.7860674, 26.9499529], [75.7861495, 26.9499876], [75.7862143, 26.9500184], [75.7863396, 26.9500627], [75.7865123, 26.9501454], [75.7865663, 26.9501666], [75.7867089, 26.9502648], [75.7868708, 26.9503919]]}}, {"type": "Feature", "properties": {"osm_id": 866730584, "name": "Dravyavati River", "natural": "water", "water": "river"}, "geometry": {"type": "LineString", "coordinates": [[75.7823717, 26.9393482], [75.7824632, 26.9394147], [75.7826043, 26.9394494], [75.7826431, 26.9393704], [75.7826625, 26.939331], [75.7826486, 26.9392865], [75.7826652, 26.9392396], [75.7827234, 26.9391631], [75.782812, 26.9390594], [75.7828674, 26.9389878], [75.7829338, 26.9388866], [75.7830003, 26.9387805], [75.7830668, 26.9386472], [75.7831304, 26.9385089], [75.7833416, 26.9378769], [75.7832135, 26.9378476], [75.783028, 26.9384768], [75.7829366, 26.9386718], [75.7828148, 26.9388792], [75.7826071, 26.9391458], [75.7825213, 26.9392347], [75.7824797, 26.9392347], [75.7823717, 26.9393482]]}}, {"type": "Feature", "properties": {"osm_id": 866730586, "name": "Dravyavati River", "natural": "water", "water": "river"}, "geometry": {"type": "LineString", "coordinates": [[75.7833416, 26.9378769], [75.7833709, 26.9378187], [75.7835347, 26.9373151], [75.7835739, 26.9370077], [75.7835714, 26.9367831], [75.7835127, 26.9366414], [75.7833978, 26.9365063], [75.7829674, 26.9360615], [75.7825516, 26.9356669], [75.7821579, 26.9353791], [75.7817862, 26.9351742], [75.7812506, 26.9349322], [75.7808007, 26.9347468], [75.7806075, 26.9347032], [75.780495, 26.9346967], [75.7803067, 26.9346967], [75.7799203, 26.9347752], [75.7798787, 26.9347883], [75.7793114, 26.9350477], [75.7788736, 26.935342], [75.7786731, 26.935547], [75.7783919, 26.9359089], [75.7782451, 26.9360898], [75.778118, 26.9361683], [75.7779639, 26.9362403], [75.7778172, 26.9362817], [75.7777047, 26.9363013], [75.7775604, 26.9362991], [75.7774259, 26.9362773], [75.7771496, 26.9361792], [75.7770982, 26.9361749], [75.7769759, 26.9360746], [75.7768708, 26.9361792], [75.7770542, 26.936297], [75.7771569, 26.9363515], [75.7773379, 26.9364082], [75.7775457, 26.9364409], [75.7776974, 26.9364474], [75.7779737, 26.9363973], [75.7781767, 26.9362948], [75.7783479, 26.9361923], [75.7784383, 26.9360986], [75.7786169, 26.9358544], [75.7788296, 26.9355819], [75.7790204, 26.9354183], [75.7791622, 26.9352984], [75.7794654, 26.935124], [75.7797809, 26.9349736], [75.7799472, 26.9349169], [75.7801648, 26.9348646], [75.7803629, 26.9348406], [75.7805781, 26.9348406], [75.7808569, 26.9349234], [75.7810452, 26.9349998], [75.7812482, 26.9350891], [75.7817324, 26.9353028], [75.7822924, 26.9356451], [75.7825419, 26.93585], [75.7829747, 26.9362904], [75.7831606, 26.9364823], [75.7833391, 26.9366741], [75.7834149, 26.9367962], [75.7834222, 26.9369161], [75.7834027, 26.9371167], [75.783366, 26.9373173], [75.7832951, 26.9375353], [75.7832193, 26.9377969], [75.7832135, 26.9378476], [75.7833416, 26.9378769]]}}, {"type": "Feature", "properties": {"osm_id": 866730587, "name": "Dravyavati River", "natural": "water", "water": "river"}, "geometry": {"type": "LineString", "coordinates": [[75.7768708, 26.9361792], [75.7767624, 26.9360565], [75.7766645, 26.9359322], [75.7765667, 26.9357426], [75.7765521, 26.9356815], [75.7765056, 26.9355529], [75.7764885, 26.9354046], [75.7765276, 26.9351474], [75.7766059, 26.9348574], [75.7766866, 26.9346045], [75.776848, 26.9342033], [75.7769329, 26.9338827], [75.7769966, 26.9335702], [75.776992, 26.9332578], [75.7769374, 26.9329493], [75.77686, 26.9327018], [75.7763508, 26.9319711], [75.7761391, 26.9316957], [75.7759145, 26.9313068], [75.7755473, 26.9306868], [75.7749448, 26.9296451], [75.7747331, 26.9294698], [75.7745712, 26.9292407], [75.7745366, 26.9291733], [75.7745366, 26.9290154], [75.7746921, 26.9289422], [75.7748152, 26.929027], [75.77488, 26.9291252], [75.775029, 26.9293254], [75.7750808, 26.9295777], [75.7753379, 26.930009], [75.7756208, 26.9304884], [75.7760441, 26.9312259], [75.7764134, 26.9318035], [75.7769058, 26.9324621], [75.7770138, 26.9326546], [75.7771153, 26.9329396], [75.7771628, 26.9332342], [75.7771585, 26.9335442], [75.7771153, 26.9338676], [75.777057, 26.9340929], [75.7769296, 26.9344241], [75.7768173, 26.934711], [75.7767373, 26.9349497], [75.7766272, 26.9354118], [75.776638, 26.9355139], [75.7766985, 26.9356699], [75.7768108, 26.9358701], [75.7768821, 26.9359798], [75.7769759, 26.9360746], [75.7768708, 26.9361792]]}}, {"type": "Feature", "properties": {"osm_id": 866730588, "name": "Dravyavati River", "natural": "water", "water": "river"}, "geometry": {"type": "LineString", "coordinates": [[75.7745366, 26.9290154], [75.7738771, 26.9279618], [75.7736681, 26.9276643], [75.7735797, 26.9274421], [75.7734952, 26.9270478], [75.7734671, 26.9266248], [75.7735274, 26.9261087], [75.7735716, 26.9256893], [75.7735756, 26.92527], [75.7734309, 26.9245746], [75.7732661, 26.9241051], [75.7731455, 26.9238828], [75.7728721, 26.9234491], [75.7725746, 26.9230477], [75.772052, 26.9224849], [75.7716661, 26.9221516], [75.7713887, 26.9219939], [75.7703716, 26.9216247], [75.7701586, 26.9215207], [75.770046, 26.9214419], [75.7698852, 26.9212949], [75.7697284, 26.9210906], [75.7695837, 26.9208074], [75.7695274, 26.9205278], [75.7695676, 26.9201801], [75.7697003, 26.9199794], [75.7698651, 26.9198181], [75.7704199, 26.9195242], [75.7705445, 26.9193951], [75.7707334, 26.9190904], [75.7709264, 26.9189184], [75.771051, 26.9190295], [75.7709023, 26.9191657], [75.7707294, 26.9194453], [75.7705927, 26.9195923], [75.7704038, 26.9196998], [75.7700018, 26.9199149], [75.7698168, 26.9200762], [75.7697364, 26.9202626], [75.7697083, 26.9204741], [75.7697163, 26.9206569], [75.7698008, 26.9208791], [75.7700138, 26.9211874], [75.7701746, 26.9213379], [75.7704038, 26.9214634], [75.7714329, 26.9218433], [75.7715776, 26.9218971], [75.7718148, 26.9220441], [75.7725063, 26.9227036], [75.7729364, 26.9232341], [75.7733666, 26.9239115], [75.7735073, 26.924209], [75.7736641, 26.9247323], [75.7737324, 26.9251553], [75.7737485, 26.9254815], [75.7737445, 26.9256929], [75.7737043, 26.9260693], [75.773648, 26.9266356], [75.7736641, 26.9270048], [75.7737123, 26.9272772], [75.7738128, 26.9275711], [75.7740098, 26.927865], [75.7741907, 26.928141], [75.7746921, 26.9289422], [75.7745366, 26.9290154]]}}, {"type": "Feature", "properties": {"osm_id": 866730589, "name": "Dravyavati River", "natural": "water", "water": "river"}, "geometry": {"type": "LineString", "coordinates": [[75.7709264, 26.9189184], [75.771051, 26.9190295], [75.7711073, 26.9189784], [75.7711915, 26.9188686], [75.771265, 26.9187223], [75.7712952, 26.9186144], [75.7714442, 26.9179828], [75.7714809, 26.9178075], [75.7715565, 26.9171913], [75.7715479, 26.9169756], [75.7715069, 26.9167542], [75.7714054, 26.9165731], [75.7712585, 26.9164326], [75.7710231, 26.9162766], [75.7708762, 26.9162034], [75.7706322, 26.9161302], [75.7703622, 26.9160513], [75.7702477, 26.9160089], [75.7701484, 26.9159107], [75.7700858, 26.9158452], [75.7698439, 26.915799], [75.7696668, 26.9158028], [75.7695372, 26.9158009], [75.7693342, 26.9157874], [75.7688461, 26.9158259], [75.7686776, 26.9158086], [75.7683796, 26.9157374], [75.7680945, 26.9155775], [75.7679498, 26.9154524], [75.7678332, 26.9153175], [75.7677187, 26.9151096], [75.7675265, 26.9151847], [75.7676885, 26.9154389], [75.7677619, 26.9155352], [75.7678785, 26.9156411], [75.7679995, 26.9157335], [75.7681507, 26.9158259], [75.7683818, 26.9159261], [75.7685588, 26.9159781], [75.7686604, 26.9159916], [75.7690685, 26.9159819], [75.7693731, 26.9159704], [75.7695804, 26.9159896], [75.7697143, 26.9160455], [75.7699324, 26.9161379], [75.7699756, 26.9161649], [75.7701484, 26.9161861], [75.7703298, 26.9162169], [75.7705393, 26.9162515], [75.7708265, 26.9163401], [75.7710468, 26.9164614], [75.7711894, 26.916577], [75.7713146, 26.9167137], [75.7713751, 26.916835], [75.7714065, 26.9170615], [75.7713939, 26.9172656], [75.7713344, 26.9177548], [75.7712811, 26.9179394], [75.7712466, 26.9180596], [75.7712121, 26.9181574], [75.7711839, 26.9183392], [75.7710867, 26.9186998], [75.771049, 26.9188033], [75.7709264, 26.9189184]]}}, {"type": "Feature", "properties": {"osm_id": 866730592, "name": "Dravyavati River", "natural": "water", "water": "river"}, "geometry": {"type": "LineString", "coordinates": [[75.7675265, 26.9151847], [75.7677187, 26.9151096], [75.7676381, 26.915009], [75.7675636, 26.9148947], [75.7674924, 26.9147252], [75.7673736, 26.9142746], [75.7673548, 26.9139373], [75.7673572, 26.913789], [75.7674086, 26.9135208], [75.7675162, 26.9131937], [75.7675847, 26.912908], [75.7676629, 26.9126507], [75.7677754, 26.9121644], [75.7678048, 26.9120903], [75.7678463, 26.9119987], [75.7679378, 26.9117942], [75.7682155, 26.9110026], [75.7683202, 26.9106982], [75.7685206, 26.9100754], [75.7685501, 26.909541], [75.7685562, 26.9094141], [75.76854, 26.90926], [75.7685542, 26.9092292], [75.7685603, 26.9091458], [75.7685359, 26.9090697], [75.7685278, 26.9088014], [75.7685257, 26.9082268], [75.7685949, 26.9077845], [75.7686965, 26.9074691], [75.7688083, 26.9071574], [75.7689262, 26.906851], [75.7689668, 26.9067278], [75.7690359, 26.906532], [75.7691132, 26.9062782], [75.7691213, 26.906184], [75.7691356, 26.9060571], [75.7691152, 26.9053646], [75.7691214, 26.90517], [75.7691356, 26.9051223], [75.769128, 26.9050648], [75.7690985, 26.9050142], [75.7690526, 26.9049411], [75.7689452, 26.9047843], [75.7688591, 26.904717], [75.7686967, 26.9046152], [75.7685973, 26.9045753], [75.7682533, 26.9044508], [75.768147, 26.9044141], [75.7679695, 26.9043802], [75.7675224, 26.9043363], [75.7672893, 26.904277], [75.766354, 26.9039829], [75.7662668, 26.9039702], [75.7661859, 26.9039716], [75.7660052, 26.9039419], [75.7657578, 26.9038853], [75.7654027, 26.9038132], [75.7650904, 26.9037171], [75.7649112, 26.9036252], [75.7646259, 26.9034654], [75.7644214, 26.9033509], [75.7643405, 26.903283], [75.7642026, 26.9034555], [75.7642755, 26.9034485], [75.7642818, 26.903464], [75.7646845, 26.9036874], [75.7650206, 26.9038585], [75.7652204, 26.9039306], [75.7661558, 26.9041497], [75.7662287, 26.904178], [75.7663207, 26.904195], [75.7663888, 26.9041907], [75.7667709, 26.9042939], [75.7671736, 26.9044183], [75.7673607, 26.9044805], [75.7675684, 26.9045116], [75.7679917, 26.9045498], [75.7681312, 26.904588], [75.7685244, 26.9047294], [75.768713, 26.9048269], [75.76887, 26.9050461], [75.7689017, 26.9051224], [75.7689318, 26.9056186], [75.7689397, 26.9060244], [75.7689334, 26.9061898], [75.7688668, 26.906457], [75.7688224, 26.9065885], [75.7686544, 26.907031], [75.7685672, 26.9072402], [75.7684403, 26.9076403], [75.7683753, 26.9078863], [75.7683468, 26.9080659], [75.7683405, 26.9084221], [75.7683357, 26.9088887], [75.7683452, 26.9091375], [75.768369, 26.9092393], [75.7683833, 26.9093594], [75.7683598, 26.9095152], [75.768339, 26.9097917], [75.7683416, 26.9099753], [75.768339, 26.9100613], [75.7682999, 26.9101891], [75.7682347, 26.910396], [75.767948, 26.9111582], [75.7677421, 26.9117346], [75.7675831, 26.9121134], [75.7674033, 26.9128663], [75.7672417, 26.9134148], [75.7671974, 26.9135682], [75.7671609, 26.9138842], [75.7671896, 26.914198], [75.7672469, 26.9145373], [75.7673199, 26.9147859], [75.7674007, 26.9149602], [75.7675265, 26.9151847]]}}, {"type": "Feature", "properties": {"osm_id": 866730598, "name": "Dravyavati River", "natural": "water", "water": "river"}, "geometry": {"type": "LineString", "coordinates": [[75.7642026, 26.9034555], [75.7641107, 26.9033831], [75.7636767, 26.9031425], [75.7635628, 26.9030686], [75.7628007, 26.9025406], [75.7626443, 26.9023736], [75.7623957, 26.9020404], [75.7622191, 26.9018498], [75.7621626, 26.9017433], [75.7623231, 26.9016981], [75.7626148, 26.9020517], [75.7628824, 26.9024], [75.7636481, 26.9029136], [75.7641503, 26.9031947], [75.7641877, 26.9032221], [75.7642651, 26.9032405], [75.7643405, 26.903283], [75.7642026, 26.9034555]]}}, {"type": "Feature", "properties": {"osm_id": 866730600, "name": "Dravyavati River", "natural": "water", "water": "river"}, "geometry": {"type": "LineString", "coordinates": [[75.7621626, 26.9017433], [75.7621355, 26.9016538], [75.7620913, 26.9015249], [75.7620443, 26.9013472], [75.7620281, 26.9010988], [75.7620687, 26.9008342], [75.7621663, 26.9005043], [75.7621866, 26.9003991], [75.7622761, 26.8999205], [75.7623574, 26.8995344], [75.7624936, 26.8990395], [75.7625708, 26.8986879], [75.7625993, 26.8984051], [75.7628899, 26.8984087], [75.7628655, 26.8986915], [75.7627578, 26.8988129], [75.7626928, 26.8989489], [75.7626033, 26.8993133], [75.7625098, 26.8996323], [75.7623919, 26.900265], [75.7623492, 26.9005006], [75.7622293, 26.9009212], [75.7621927, 26.901097], [75.7622049, 26.9013109], [75.7622537, 26.9015031], [75.7623231, 26.9016981], [75.7621626, 26.9017433]]}}, {"type": "Feature", "properties": {"osm_id": 866730601, "name": "Dravyavati River", "natural": "water", "water": "river"}, "geometry": {"type": "LineString", "coordinates": [[75.7625993, 26.8984051], [75.7626082, 26.898214], [75.762635, 26.8981931], [75.7626483, 26.8977461], [75.7626584, 26.8971531], [75.7626283, 26.8969772], [75.7624712, 26.8967627], [75.7621638, 26.8964319], [75.7620402, 26.8963783], [75.7618764, 26.8963485], [75.761686, 26.8962859], [75.7614253, 26.8961339], [75.7610277, 26.8958567], [75.7604997, 26.8955796], [75.7593202, 26.8949866], [75.7594906, 26.894775], [75.7604095, 26.8952369], [75.7612215, 26.8956541], [75.7616693, 26.8959879], [75.7617728, 26.8960177], [75.7619399, 26.896116], [75.7621905, 26.8961637], [75.762254, 26.8961696], [75.7623142, 26.8962054], [75.7628522, 26.8967984], [75.7628822, 26.8968729], [75.7629491, 26.8971501], [75.762929, 26.8977759], [75.7628899, 26.8984087], [75.7625993, 26.8984051]]}}, {"type": "Feature", "properties": {"osm_id": 866730603, "name": "Dravyavati River", "natural": "water", "water": "river"}, "geometry": {"type": "LineString", "coordinates": [[75.7593202, 26.8949866], [75.7591798, 26.8948912], [75.7587855, 26.89462], [75.7584881, 26.8943697], [75.7582208, 26.8940985], [75.7577998, 26.8934995], [75.7574589, 26.8927604], [75.7571582, 26.8920481], [75.7566202, 26.8906534], [75.7564965, 26.8904328], [75.7564063, 26.8902749], [75.7564164, 26.8902272], [75.7563495, 26.8899292], [75.7566436, 26.8898815], [75.7566603, 26.8899232], [75.756667, 26.8900424], [75.7566503, 26.8901259], [75.7566803, 26.8902123], [75.7568541, 26.8904239], [75.7569076, 26.8905968], [75.7572217, 26.8914402], [75.7576561, 26.8925011], [75.7580203, 26.8933117], [75.7582575, 26.8936872], [75.7583712, 26.8938571], [75.7585349, 26.8940538], [75.7590361, 26.8944799], [75.7594906, 26.894775], [75.7593202, 26.8949866]]}}, {"type": "Feature", "properties": {"osm_id": 866730605, "name": "Dravyavati River", "natural": "water", "water": "river"}, "geometry": {"type": "LineString", "coordinates": [[75.7563495, 26.8899292], [75.7563375, 26.8897284], [75.756311, 26.8895725], [75.7562643, 26.8892154], [75.7561992, 26.8888201], [75.7561149, 26.8883494], [75.7560771, 26.8881064], [75.7561376, 26.8876745], [75.7561565, 26.8874551], [75.7561982, 26.8872392], [75.7562057, 26.8870671], [75.7561747, 26.8870058], [75.7562228, 26.8868851], [75.7562588, 26.886775], [75.7562785, 26.886736], [75.756309, 26.8866942], [75.7566639, 26.8867818], [75.7565722, 26.8869912], [75.7564761, 26.8871778], [75.7564334, 26.8875295], [75.7563542, 26.8880535], [75.7563928, 26.8884143], [75.7564843, 26.8888729], [75.756533, 26.8891594], [75.756592, 26.8896181], [75.7566436, 26.8898815], [75.7563495, 26.8899292]]}}, {"type": "Feature", "properties": {"osm_id": 866851304, "name": "Dravyavati River", "natural": "water", "water": "river"}, "geometry": {"type": "LineString", "coordinates": [[75.756309, 26.8866942], [75.7566639, 26.8867818], [75.7567891, 26.8865347], [75.7568839, 26.8862637], [75.7569647, 26.8861095], [75.7570484, 26.8860523], [75.7573662, 26.8858757], [75.7580075, 26.8854629], [75.7581497, 26.885346], [75.758448, 26.8850252], [75.7586906, 26.884697], [75.7587268, 26.8846], [75.7588774, 26.8840305], [75.7590586, 26.883374], [75.7591618, 26.8829413], [75.7592092, 26.8825534], [75.7592566, 26.8823345], [75.759396, 26.8820361], [75.7598672, 26.8814815], [75.7601767, 26.881198], [75.7604973, 26.8809543], [75.7610215, 26.8807902], [75.7615038, 26.8807081], [75.761593, 26.8806683], [75.7616739, 26.8805813], [75.7617464, 26.880457], [75.7618663, 26.8801635], [75.7621423, 26.8797681], [75.7623263, 26.8795095], [75.7626163, 26.8791364], [75.7626497, 26.879027], [75.7626609, 26.8788778], [75.7626776, 26.8788032], [75.7628254, 26.8784028], [75.762817, 26.8783381], [75.7626469, 26.8778358], [75.7625521, 26.87702], [75.7625215, 26.8767689], [75.7624797, 26.8766918], [75.7620503, 26.8760253], [75.7620503, 26.8759283], [75.7621674, 26.8753687], [75.7621367, 26.8751722], [75.7620642, 26.8749385], [75.7620336, 26.8747594], [75.7619499, 26.8742272], [75.7618718, 26.8732821], [75.7619248, 26.8724564], [75.7620865, 26.8717177], [75.7623486, 26.8709716], [75.7624964, 26.8705836], [75.7625269, 26.8705661], [75.7627191, 26.8705548], [75.7627647, 26.8704588], [75.7628276, 26.8703044], [75.7628567, 26.8702483], [75.7630921, 26.8702074], [75.7632212, 26.8701849], [75.7638672, 26.8700955], [75.7651111, 26.8699547], [75.7653163, 26.8699547], [75.7657898, 26.8698731], [75.766055, 26.8698533], [75.7664433, 26.869859], [75.76716, 26.8698308], [75.7674252, 26.8698336], [75.7675357, 26.8698364], [75.768085, 26.8697998], [75.7684007, 26.8697463], [75.7686848, 26.8697379], [75.7689563, 26.86969], [75.7692531, 26.8695971], [75.7694709, 26.8695492], [75.7697493, 26.8694425], [75.769875, 26.8693943], [75.7705286, 26.8690704], [75.7712105, 26.8687888], [75.7719555, 26.8684199], [75.7728805, 26.8679721], [75.7731142, 26.8678313], [75.7733974, 26.8676367], [75.7734709, 26.8675863], [75.773654, 26.8674201], [75.7737609, 26.8673316], [75.7737866, 26.8673103], [75.7740202, 26.8670625], [75.7744086, 26.8665386], [75.7747211, 26.8661387], [75.7748916, 26.865812], [75.7749674, 26.8655163], [75.7749958, 26.8650798], [75.7750116, 26.86457], [75.7749484, 26.8640237], [75.7749389, 26.8636604], [75.7749396, 26.8635414], [75.7749421, 26.8631055], [75.7748537, 26.8623451], [75.7748032, 26.8620381], [75.7747937, 26.8611622], [75.7747906, 26.8609792], [75.7747243, 26.8604102], [75.7746958, 26.8596414], [75.7747716, 26.8589795], [75.7748158, 26.8589203], [75.7748505, 26.8587288], [75.7749831, 26.8585711], [75.7752073, 26.8583768], [75.7753273, 26.8582162], [75.7754567, 26.8580332], [75.7755546, 26.8578022], [75.7756651, 26.8574896], [75.7759208, 26.8567122], [75.776025, 26.856301], [75.7760786, 26.8562503], [75.7765206, 26.8560757], [75.7767827, 26.8560306], [75.7770131, 26.855932], [75.7776887, 26.8555546], [75.7777816, 26.8553909], [75.7779508, 26.8550927], [75.778137, 26.8547998], [75.7782791, 26.8544167], [75.7784275, 26.8539069], [75.7785001, 26.8535182], [75.7784654, 26.8532056], [75.7784054, 26.8530845], [75.778096, 26.8527042], [75.7779665, 26.852631], [75.7769973, 26.852431], [75.7768016, 26.8523099], [75.7760186, 26.8518818], [75.7755956, 26.8515325], [75.7754188, 26.8513241], [75.7752104, 26.8509945], [75.7750842, 26.8506058], [75.7750936, 26.8504932], [75.7751599, 26.8503552], [75.7748853, 26.8502594], [75.7748379, 26.8503833], [75.7748063, 26.8505439], [75.7748127, 26.8506763], [75.7748632, 26.8508847], [75.7749484, 26.8510819], [75.77498, 26.8511889], [75.7751757, 26.8514508], [75.775504, 26.8518142], [75.7757187, 26.8519944], [75.7758608, 26.8521127], [75.776568, 26.8525014], [75.776871, 26.8526704], [75.7778529, 26.8528873], [75.7781496, 26.8532394], [75.778197, 26.8535746], [75.7781717, 26.8537239], [75.777875, 26.8547068], [75.7775176, 26.8552784], [75.777433, 26.8554138], [75.7766943, 26.8557715], [75.7763438, 26.8558504], [75.7757724, 26.8560982], [75.7757503, 26.8561517], [75.7756651, 26.8565404], [75.7754914, 26.8571065], [75.7752483, 26.8578276], [75.7749989, 26.8581993], [75.7746548, 26.858526], [75.7745506, 26.8587964], [75.7745285, 26.8588302], [75.7744559, 26.8590217], [75.7743865, 26.8595963], [75.7744464, 26.860537], [75.7745064, 26.8615115], [75.7745191, 26.8621029], [75.7746106, 26.8627056], [75.7746611, 26.8631703], [75.7746559, 26.8635683], [75.7746516, 26.8638885], [75.7747053, 26.8646038], [75.7746958, 26.8651981], [75.7746706, 26.8655248], [75.7745633, 26.8658655], [75.7744464, 26.8660373], [75.7741339, 26.8664401], [75.7740171, 26.86664], [75.7736824, 26.8670174], [75.7735457, 26.8671526], [75.7733636, 26.8673328], [75.7731936, 26.8674531], [75.7729974, 26.8675919], [75.772748, 26.8677412], [75.7711978, 26.8684847], [75.7694457, 26.8692901], [75.7691773, 26.8693448], [75.7691142, 26.8693577], [75.7687385, 26.8694534], [75.7675294, 26.8695717], [75.7674315, 26.8695745], [75.7669264, 26.8695717], [75.7657519, 26.8696083], [75.7652752, 26.8697069], [75.7651395, 26.8696984], [75.7649848, 26.8697041], [75.7630464, 26.8699575], [75.7630116, 26.8699519], [75.7628917, 26.8699688], [75.7627528, 26.8700082], [75.7623613, 26.869828], [75.7623297, 26.8699801], [75.7623108, 26.8703434], [75.7622697, 26.8704081], [75.761913, 26.8713234], [75.7617993, 26.871712], [75.7616541, 26.8724273], [75.7616131, 26.8727033], [75.7616068, 26.8735171], [75.7616888, 26.8742465], [75.761752, 26.8748154], [75.7617804, 26.8749984], [75.7618688, 26.8753251], [75.7618688, 26.8754264], [75.7617488, 26.8759925], [75.761752, 26.8760685], [75.7617772, 26.8761417], [75.7622413, 26.8768232], [75.7622634, 26.8769724], [75.7622792, 26.877102], [75.7623771, 26.877913], [75.7625128, 26.8782903], [75.7625318, 26.8783973], [75.7624686, 26.8785691], [75.7624023, 26.8787493], [75.7623834, 26.878969], [75.7623581, 26.8790366], [75.7621081, 26.8793612], [75.7620393, 26.8794505], [75.7618498, 26.8797208], [75.7616036, 26.8800503], [75.7615026, 26.8802868], [75.76143, 26.8804248], [75.7613542, 26.8804699], [75.7612942, 26.8804868], [75.7609564, 26.8805431], [75.7603818, 26.8807149], [75.7597788, 26.8811879], [75.7595957, 26.8813682], [75.7591853, 26.8818807], [75.7590085, 26.8822524], [75.7589612, 26.8823763], [75.7589359, 26.8826747], [75.7588791, 26.8829282], [75.7587054, 26.8835758], [75.7585413, 26.8842291], [75.758456, 26.8845473], [75.7582319, 26.8848514], [75.7579193, 26.8852005], [75.7571301, 26.8857271], [75.7570133, 26.8857862], [75.7569438, 26.88582], [75.7568491, 26.8858989], [75.7567418, 26.8859805], [75.7566976, 26.8860734], [75.7565176, 26.8864142], [75.756486, 26.8864648], [75.7564797, 26.8865521], [75.7564324, 26.8865662], [75.756356, 26.886598], [75.7563377, 26.8866056], [75.756309, 26.8866942]]}}, {"type": "Feature", "properties": {"osm_id": 866851323, "name": "Dravyavati River", "natural": "water", "water": "river"}, "geometry": {"type": "LineString", "coordinates": [[75.7748853, 26.8502594], [75.7751599, 26.8503552], [75.7752113, 26.8502863], [75.7753032, 26.8502244], [75.7755705, 26.8500988], [75.7760336, 26.849844], [75.7763683, 26.8496255], [75.776911, 26.8493925], [75.7776436, 26.8491686], [75.7777782, 26.849205], [75.777919, 26.8492578], [75.7780047, 26.8492687], [75.7780115, 26.8492272], [75.7781792, 26.8491434], [75.7782329, 26.8490925], [75.7782496, 26.8488382], [75.7783033, 26.8488232], [75.7784073, 26.8487544], [75.7784408, 26.8487155], [75.7787595, 26.8483444], [75.7788467, 26.8482157], [75.7790111, 26.8478625], [75.7791553, 26.8474435], [75.7792727, 26.8470724], [75.7794706, 26.8462494], [75.7795712, 26.8457676], [75.7796752, 26.8452169], [75.779796, 26.8442173], [75.7799301, 26.8431938], [75.7800576, 26.8421822], [75.7800811, 26.8413232], [75.7800844, 26.8408802], [75.7800073, 26.8399375], [75.7799503, 26.8394436], [75.7799603, 26.8391623], [75.7800073, 26.8389109], [75.7800576, 26.8387523], [75.7802823, 26.8382854], [75.780658, 26.8374832], [75.7807016, 26.8373875], [75.780658, 26.8369774], [75.7805507, 26.8360047], [75.780554, 26.8357712], [75.7805574, 26.8353342], [75.7806681, 26.8347955], [75.780819, 26.8340442], [75.7808761, 26.8338886], [75.78097, 26.8337539], [75.7811612, 26.8335593], [75.7812383, 26.8334456], [75.7815469, 26.8331912], [75.7816241, 26.8331103], [75.7816576, 26.8330535], [75.781671, 26.8329278], [75.7816979, 26.8328619], [75.7818924, 26.8327332], [75.7820709, 26.8323955], [75.7823486, 26.8320957], [75.782684, 26.8316407], [75.7828517, 26.8312726], [75.7829725, 26.8309253], [75.7830329, 26.8306889], [75.7830698, 26.8303327], [75.7830463, 26.8296682], [75.7830463, 26.8292851], [75.7831301, 26.8287792], [75.7832475, 26.8284559], [75.7834454, 26.8281835], [75.7837004, 26.827962], [75.783962, 26.8277914], [75.7844517, 26.8275939], [75.7851729, 26.8273305], [75.7857096, 26.827115], [75.7859779, 26.8269383], [75.7863503, 26.826666], [75.7868937, 26.8261631], [75.7869406, 26.8260793], [75.7873297, 26.8256692], [75.7875645, 26.8253549], [75.7877624, 26.8251124], [75.7880543, 26.8247323], [75.7884668, 26.8241845], [75.7888727, 26.8236157], [75.789188, 26.8231488], [75.7894228, 26.8226938], [75.7895838, 26.8220502], [75.7896442, 26.8216072], [75.7896912, 26.8211821], [75.7897046, 26.8206163], [75.7896744, 26.8200057], [75.7897046, 26.8194309], [75.7897616, 26.8190956], [75.7898119, 26.818928], [75.7899293, 26.8187993], [75.7899293, 26.8187005], [75.789934, 26.8184701], [75.7895863, 26.8184578], [75.7895405, 26.8186376], [75.7895154, 26.8188062], [75.7894607, 26.8190274], [75.789425, 26.8192492], [75.7894112, 26.8194296], [75.789396, 26.8198057], [75.7893772, 26.8200787], [75.7894022, 26.8203629], [75.7894147, 26.8208811], [75.7894019, 26.8213282], [75.7893259, 26.8219756], [75.7891284, 26.8226297], [75.7887828, 26.8232636], [75.7877117, 26.8247278], [75.7869673, 26.8256735], [75.7865343, 26.8261243], [75.7861355, 26.8264835], [75.785562, 26.8269038], [75.7838452, 26.8275478], [75.7836021, 26.8277003], [75.7832413, 26.8280155], [75.7830172, 26.8283206], [75.7828539, 26.828673], [75.7827893, 26.8288967], [75.78274, 26.8292696], [75.7827627, 26.8298356], [75.7827476, 26.8305609], [75.7826184, 26.8311031], [75.7824019, 26.8315437], [75.7820753, 26.8319979], [75.7818565, 26.8322265], [75.7815435, 26.8323843], [75.7812625, 26.8325639], [75.7811561, 26.8326147], [75.7810878, 26.8326249], [75.7810308, 26.8326554], [75.7808941, 26.8328791], [75.7808257, 26.8330011], [75.7806206, 26.8336552], [75.7805067, 26.8342686], [75.7803585, 26.8350244], [75.780294, 26.8354345], [75.780275, 26.8359225], [75.7803965, 26.8371426], [75.7803737, 26.8373087], [75.7803167, 26.8375357], [75.7801762, 26.8378611], [75.779804, 26.8386406], [75.7797052, 26.8389083], [75.7796711, 26.839237], [75.7796711, 26.8395319], [75.7797584, 26.8405621], [75.7797698, 26.8418804], [75.7796977, 26.842687], [75.7795571, 26.8436494], [75.7795115, 26.8442153], [75.7794546, 26.8445847], [75.7793406, 26.8453608], [75.7791431, 26.8464214], [75.7788241, 26.847577], [75.7786608, 26.8480006], [75.778505, 26.8482175], [75.778243, 26.8485157], [75.778205, 26.8485191], [75.7780948, 26.8486275], [75.7778252, 26.8485394], [75.7776201, 26.848614], [75.7775327, 26.8489427], [75.7770541, 26.8490579], [75.7766515, 26.84919], [75.7763211, 26.8493358], [75.7756602, 26.8497458], [75.7750525, 26.8500609], [75.77495, 26.8501694], [75.7748853, 26.8502594]]}}, {"type": "Feature", "properties": {"osm_id": 866851326, "name": "Dravyavati River", "natural": "water", "water": "river"}, "geometry": {"type": "LineString", "coordinates": [[75.7895863, 26.8184578], [75.789934, 26.8184701], [75.7899456, 26.8183755], [75.7899801, 26.8182418], [75.790032, 26.818103], [75.790136, 26.8178344], [75.7903373, 26.8173674], [75.7905452, 26.8168795], [75.790837, 26.8162329], [75.7910987, 26.8156222], [75.7912597, 26.8152539], [75.7914274, 26.814778], [75.7916454, 26.8140415], [75.7917892, 26.8134541], [75.7913823, 26.8135028], [75.7912463, 26.8142032], [75.791035, 26.8149007], [75.7905486, 26.8160772], [75.7900085, 26.8172896], [75.7897301, 26.8179512], [75.7895863, 26.8184578]]}}, {"type": "Feature", "properties": {"osm_id": 866851327, "name": "Dravyavati River", "natural": "water", "water": "river"}, "geometry": {"type": "LineString", "coordinates": [[75.7945873, 26.8077433], [75.7955335, 26.8074459], [75.7961222, 26.8072595], [75.7963387, 26.8071849], [75.796916, 26.8068968], [75.7966805, 26.8065205], [75.7964526, 26.8066493], [75.7963121, 26.8066663], [75.7961829, 26.8066391], [75.7960614, 26.8066018], [75.7957993, 26.8064391], [75.7956816, 26.8063781], [75.7955297, 26.8063476], [75.7953435, 26.8063205], [75.7949144, 26.8062866], [75.7947738, 26.80629], [75.7944852, 26.8063374], [75.7943332, 26.8063713], [75.794097, 26.8064582], [75.7942107, 26.806659], [75.7944016, 26.8066798], [75.7945421, 26.806673], [75.7948384, 26.8066391], [75.7950853, 26.8066425], [75.7952714, 26.8066595], [75.7954309, 26.8066866], [75.7954993, 26.8067374], [75.7955714, 26.8068595], [75.7955373, 26.8069273], [75.7954385, 26.8070256], [75.7952524, 26.8070934], [75.7947928, 26.8072459], [75.7945307, 26.8072798], [75.7944096, 26.8073016], [75.7945873, 26.8077433]]}}, {"type": "Feature", "properties": {"osm_id": 866851328, "name": "Dravyavati River", "natural": "water", "water": "river"}, "geometry": {"type": "LineString", "coordinates": [[75.7966805, 26.8065205], [75.796916, 26.8068968], [75.7971691, 26.8067077], [75.7973882, 26.8065295], [75.7976365, 26.8062774], [75.797807, 26.8060731], [75.7980213, 26.8057515], [75.7982501, 26.8054168], [75.7986543, 26.8047822], [75.798966, 26.8043432], [75.7994773, 26.8035956], [75.7998328, 26.8030436], [75.8003295, 26.8024003], [75.8014642, 26.8009007], [75.8017515, 26.8005139], [75.8023359, 26.7997706], [75.8028365, 26.7993074], [75.8033314, 26.7988909], [75.8030557, 26.7985376], [75.802273, 26.7992093], [75.8019418, 26.7995587], [75.8014257, 26.8002305], [75.8012881, 26.8004109], [75.8010817, 26.8006757], [75.7998216, 26.8023494], [75.7991593, 26.8032285], [75.7980325, 26.8049136], [75.7974132, 26.8058195], [75.7970433, 26.8062456], [75.7966805, 26.8065205]]}}, {"type": "Feature", "properties": {"osm_id": 866867080, "name": "Dravyavati River", "natural": "water", "water": "river"}, "geometry": {"type": "LineString", "coordinates": [[75.8030557, 26.7985376], [75.8033314, 26.7988909], [75.8040522, 26.7984048], [75.8047736, 26.7979119], [75.8055434, 26.7973795], [75.8057691, 26.7972356], [75.8063495, 26.7969191], [75.8071031, 26.7965413], [75.8075021, 26.7963255], [75.8079769, 26.7960369], [75.808026, 26.7960053], [75.8081429, 26.7959226], [75.8083565, 26.7957859], [75.8096663, 26.7947786], [75.8101822, 26.7943792], [75.8105167, 26.7941274], [75.8108754, 26.7938864], [75.8112663, 26.7936993], [75.8116935, 26.7935806], [75.8119797, 26.7935338], [75.812286, 26.7934979], [75.8124794, 26.7934907], [75.8126285, 26.7934907], [75.8130275, 26.7935158], [75.8134749, 26.7936094], [75.8137127, 26.7936957], [75.8141479, 26.7938972], [75.8145913, 26.7941778], [75.8147001, 26.7942893], [75.8148976, 26.7947174], [75.81522, 26.7949728], [75.8153489, 26.7950232], [75.8156714, 26.7951275], [75.8157278, 26.7951563], [75.8167273, 26.7956564], [75.8168925, 26.7956887], [75.8171021, 26.7957427], [75.8174205, 26.7957283], [75.8185812, 26.7956564], [75.8187343, 26.7956312], [75.8188875, 26.795588], [75.8190971, 26.7955017], [75.8192986, 26.7954189], [75.8195565, 26.7953146], [75.8200361, 26.7951671], [75.8203263, 26.7950736], [75.8206044, 26.7949297], [75.8209469, 26.7947894], [75.8211605, 26.794721], [75.8215112, 26.7946347], [75.821886, 26.7945555], [75.8222688, 26.7945052], [75.8231353, 26.7943289], [75.8236109, 26.7942246], [75.8239293, 26.7941454], [75.8244492, 26.7940123], [75.8256502, 26.7936993], [75.8271414, 26.7933288], [75.8273619, 26.7934185], [75.8273953, 26.7934439], [75.8275887, 26.7934727], [75.8276976, 26.7932532], [75.8277338, 26.793228], [75.8278426, 26.7932244], [75.8282255, 26.7932856], [75.8284512, 26.7933576], [75.8292653, 26.7937353], [75.8301197, 26.794185], [75.831095, 26.7946455], [75.8319978, 26.794962], [75.8331384, 26.7952031], [75.8341258, 26.7954549], [75.8345207, 26.7955125], [75.834694, 26.7955125], [75.8350884, 26.7954103], [75.8353348, 26.7953182], [75.8357298, 26.7951239], [75.8360562, 26.7948793], [75.8367373, 26.7943145], [75.8373419, 26.793872], [75.837495, 26.7937605], [75.8377489, 26.7935842], [75.8379827, 26.7934295], [75.8382849, 26.7932065], [75.8384986, 26.7930662], [75.8387766, 26.7928935], [75.8390588, 26.7925841], [75.8392401, 26.7923071], [75.839619, 26.791235], [75.8400099, 26.7909508], [75.8400744, 26.7909436], [75.8401711, 26.790886], [75.8402598, 26.7907889], [75.840429, 26.7907061], [75.8406346, 26.7907025], [75.8408562, 26.7906954], [75.8410134, 26.7907061], [75.8418074, 26.7908896], [75.8420378, 26.7909413], [75.8421322, 26.7908818], [75.8422238, 26.7909562], [75.8423376, 26.7909512], [75.8424403, 26.7910231], [75.8425458, 26.7910702], [75.8426735, 26.7910925], [75.8427346, 26.7913527], [75.8427845, 26.7916996], [75.8429733, 26.7923835], [75.8431649, 26.7930005], [75.8430677, 26.7931244], [75.8433064, 26.7932954], [75.8434674, 26.7933648], [75.8436042, 26.7934202], [75.84553, 26.7938439], [75.8468351, 26.7941657], [75.8473873, 26.7943286], [75.8477889, 26.7944019], [75.8480125, 26.7943856], [75.848268, 26.7943408], [75.848624, 26.7941575], [75.8488522, 26.7938846], [75.8489936, 26.7936768], [75.8491032, 26.7932369], [75.8492127, 26.7926177], [75.8493359, 26.7921615], [75.8494272, 26.7920148], [75.849523, 26.7918519], [75.8497557, 26.7916156], [75.8499018, 26.7914567], [75.8501391, 26.7912897], [75.8502532, 26.791192], [75.8498972, 26.7908661], [75.8496827, 26.791086], [75.849418, 26.7912897], [75.8492127, 26.7914934], [75.8490302, 26.7917378], [75.8488613, 26.7920719], [75.8487609, 26.7923977], [75.8486194, 26.7931514], [75.8485373, 26.793465], [75.8484597, 26.7936606], [75.8483091, 26.7938113], [75.8482042, 26.7938724], [75.8479805, 26.7939376], [75.8478573, 26.7939498], [75.8476794, 26.7939457], [75.8468579, 26.7937217], [75.8455984, 26.7934202], [75.8436635, 26.7929762], [75.8434992, 26.792911], [75.8433623, 26.7927521], [75.843303, 26.7925811], [75.8429881, 26.7915056], [75.8430702, 26.7914975], [75.8430565, 26.7913223], [75.8431022, 26.7911838], [75.8430702, 26.7910657], [75.8429242, 26.7909801], [75.842801, 26.7908661], [75.8426778, 26.7907683], [75.842477, 26.7906094], [75.8420891, 26.7905117], [75.8410303, 26.7902876], [75.8408615, 26.7901939], [75.8407428, 26.790141], [75.8405786, 26.7901858], [75.8404417, 26.790418], [75.8401907, 26.7905768], [75.8399899, 26.7907113], [75.8394788, 26.7910942], [75.8391913, 26.7913671], [75.8389722, 26.7916645], [75.8389448, 26.7917582], [75.8388399, 26.7921126], [75.83863, 26.7924263], [75.8384063, 26.7926462], [75.8379454, 26.7929558], [75.8376579, 26.7931065], [75.8366357, 26.7938113], [75.8357869, 26.7945201], [75.8354811, 26.7947604], [75.8349426, 26.795013], [75.8346369, 26.7951026], [75.8344726, 26.7951026], [75.8334915, 26.7948663], [75.8327385, 26.7946789], [75.8322776, 26.7945975], [75.8316934, 26.7944182], [75.8312873, 26.7942594], [75.8295805, 26.7934202], [75.8286815, 26.7929803], [75.8283256, 26.7928784], [75.8280518, 26.7928295], [75.8277232, 26.7928092], [75.8274311, 26.7926014], [75.8272045, 26.7926562], [75.8270478, 26.7929069], [75.8257016, 26.7932573], [75.8238032, 26.793742], [75.8229726, 26.7939498], [75.8219869, 26.794129], [75.8214712, 26.7942146], [75.8211335, 26.7942919], [75.820668, 26.7944467], [75.8201706, 26.7946545], [75.8198238, 26.794793], [75.8191758, 26.795013], [75.8188335, 26.7951718], [75.8186419, 26.7952329], [75.8184, 26.7952411], [75.817355, 26.795294], [75.8170446, 26.7953103], [75.8168621, 26.7952411], [75.8164833, 26.7950537], [75.8161228, 26.7948785], [75.8159494, 26.7946952], [75.8157897, 26.794516], [75.8157167, 26.794459], [75.8153059, 26.7941738], [75.8149135, 26.7938642], [75.8146077, 26.7936768], [75.8143841, 26.7935383], [75.813946, 26.7933265], [75.8135581, 26.7932125], [75.8132889, 26.7931432], [75.8127321, 26.7930658], [75.8121434, 26.7930862], [75.8114544, 26.7932002], [75.8108885, 26.7933958], [75.8104823, 26.7936157], [75.8099347, 26.7940068], [75.8088988, 26.7948011], [75.8079131, 26.7955425], [75.8075298, 26.7957991], [75.8070141, 26.7960884], [75.805677, 26.7967849], [75.8052069, 26.7970863], [75.8046867, 26.797457], [75.8038242, 26.7980517], [75.8030557, 26.7985376]]}}, {"type": "Feature", "properties": {"osm_id": 866867122, "name": "Dravyavati River", "natural": "water", "water": "river"}, "geometry": {"type": "LineString", "coordinates": [[75.8570286, 26.7859424], [75.8580091, 26.7862832], [75.8580553, 26.7861374], [75.8580746, 26.786077], [75.8581422, 26.7860425], [75.8582775, 26.7860296], [75.8582582, 26.7859822], [75.8584755, 26.7859347], [75.8589875, 26.7857752], [75.8593691, 26.7856114], [75.8599053, 26.7853009], [75.8605042, 26.7846153], [75.860736, 26.7843135], [75.8611225, 26.7836624], [75.8616731, 26.7826361], [75.8616441, 26.7826059], [75.8617407, 26.7824464], [75.8618663, 26.782179], [75.862132, 26.781778], [75.8627696, 26.7810018], [75.8629434, 26.7808423], [75.8631028, 26.7807733], [75.8633637, 26.7806871], [75.8641462, 26.7806353], [75.8645857, 26.7806094], [75.865431, 26.7805275], [75.8654213, 26.7806353], [75.8657983, 26.7806122], [75.8663342, 26.7805793], [75.8664115, 26.7804801], [75.8675997, 26.7802645], [75.8688073, 26.7800101], [75.8692034, 26.7799367], [75.8696091, 26.7799281], [75.8701163, 26.7799712], [75.8706669, 26.7800618], [75.8709277, 26.7801308], [75.8713625, 26.7803981], [75.871604, 26.780562], [75.8718358, 26.7807992], [75.8721691, 26.7812606], [75.8723478, 26.7814805], [75.8734008, 26.7820367], [75.8743524, 26.7824507], [75.8751783, 26.7827094], [75.8758207, 26.7828862], [75.8766564, 26.7830414], [75.8779074, 26.7831104], [75.8789748, 26.7830371], [75.8799119, 26.7829034], [75.8807427, 26.7829983], [75.8811774, 26.7831406], [75.8817619, 26.7832182], [75.8822111, 26.7831708], [75.8826699, 26.7830544], [75.8835877, 26.7827827], [75.8841866, 26.7826189], [75.8848435, 26.7824248], [75.8854521, 26.7821661], [75.8863071, 26.7817263], [75.8879687, 26.7808552], [75.8883502, 26.7804844], [75.8889782, 26.7799928], [75.889722, 26.7796004], [75.8903451, 26.7793805], [75.8915382, 26.7791864], [75.8924704, 26.7790441], [75.8927844, 26.7790528], [75.8934606, 26.7790916], [75.8940933, 26.779139], [75.8944556, 26.7791261], [75.8949145, 26.7790226], [75.8952477, 26.7788544], [75.8958081, 26.7785353], [75.8966147, 26.7779316], [75.8973537, 26.7773969], [75.8980154, 26.7768018], [75.8985274, 26.7762196], [75.8986772, 26.7760127], [75.8989243, 26.7756965], [75.8992906, 26.7752278], [75.8996577, 26.774719], [75.9003533, 26.7738867], [75.9007252, 26.7733735], [75.9009474, 26.773145], [75.9011116, 26.7730544], [75.9013724, 26.7728991], [75.9016331, 26.7727931], [75.9017009, 26.7727655], [75.9021646, 26.7726663], [75.9027973, 26.772731], [75.9031934, 26.7728776], [75.903546, 26.7730846], [75.9037344, 26.7732485], [75.9054346, 26.7745292], [75.9060239, 26.7748225], [75.9064683, 26.7749648], [75.9070914, 26.7750467], [75.9074778, 26.775051], [75.9078159, 26.775051], [75.9083182, 26.7749044], [75.9088447, 26.7746802], [75.909661, 26.7742101], [75.9107865, 26.7735633], [75.9115738, 26.7731536], [75.9120568, 26.7728991], [75.9135783, 26.7721574], [75.9149211, 26.7715235], [75.9153124, 26.7713337], [75.9162639, 26.7707472], [75.9168967, 26.7702082], [75.9176453, 26.7695829], [75.9185631, 26.7689748], [75.919169, 26.7686051], [75.9192345, 26.7685651], [75.9202005, 26.7680821], [75.9213936, 26.7676336], [75.922519, 26.767336], [75.9234029, 26.7672196], [75.9238208, 26.7672149], [75.9249486, 26.7672023], [75.9252239, 26.7674395], [75.9255572, 26.7673748], [75.9258084, 26.7672196], [75.9263252, 26.7672325], [75.9278177, 26.7672584], [75.9284505, 26.7672843], [75.9291085, 26.7672697], [75.9292281, 26.767267], [75.9301314, 26.7672196], [75.9314645, 26.7670212], [75.9323967, 26.7668444], [75.9332517, 26.7666072], [75.934324, 26.7662881], [75.934836, 26.7660466], [75.9350292, 26.7659646], [75.9364396, 26.7652487], [75.9372124, 26.7647916], [75.9375795, 26.7645199], [75.9383765, 26.7639161], [75.9388692, 26.7634805], [75.9396855, 26.7626956], [75.9400478, 26.7622471], [75.9403134, 26.7620271], [75.940753, 26.7612724], [75.9413133, 26.7604702], [75.941946, 26.7594437], [75.9424145, 26.7586329], [75.9430376, 26.7575805], [75.9432985, 26.7571492], [75.943511, 26.7567093], [75.9437525, 26.7562133], [75.9439844, 26.7558855], [75.9441921, 26.755644], [75.9444046, 26.7552299], [75.9446171, 26.7548892], [75.9454962, 26.7533839], [75.9458681, 26.7527499], [75.9464526, 26.7517492], [75.946868, 26.7512446], [75.9471868, 26.7510634], [75.9473896, 26.7509729], [75.9477181, 26.7508823], [75.949911, 26.7507054], [75.9502781, 26.7506537], [75.950242, 26.750249], [75.9501996, 26.7497733], [75.9481188, 26.7499061], [75.9475738, 26.7499448], [75.9470536, 26.750083], [75.9464962, 26.7503208], [75.9461742, 26.7505863], [75.9458397, 26.7509181], [75.9450656, 26.7522011], [75.9446011, 26.7530029], [75.943666, 26.7545292], [75.9426318, 26.7561329], [75.9420744, 26.7571947], [75.9414985, 26.758284], [75.9402784, 26.7602692], [75.9392604, 26.7616935], [75.9381625, 26.7628017], [75.9380473, 26.7629179], [75.9370038, 26.7637622], [75.9362578, 26.7642903], [75.9346341, 26.7651245], [75.9342499, 26.7653028], [75.9324341, 26.7658712], [75.9316354, 26.7660663], [75.930961, 26.766174], [75.9290812, 26.7663388], [75.9258526, 26.7663085], [75.9253892, 26.7664565], [75.9250427, 26.7665103], [75.9248091, 26.7664632], [75.9246622, 26.766285], [75.9238288, 26.7662641], [75.9234529, 26.7662547], [75.9224734, 26.7663522], [75.9215202, 26.766544], [75.9205935, 26.7669005], [75.9200209, 26.767109], [75.9190301, 26.7675698], [75.918593, 26.7678534], [75.9185064, 26.7679096], [75.91819, 26.7680946], [75.917979, 26.7681719], [75.9172406, 26.7686496], [75.917007, 26.7688245], [75.9157186, 26.769958], [75.9147203, 26.7705432], [75.9144206, 26.7706851], [75.9134131, 26.7711621], [75.912264, 26.7717372], [75.9099773, 26.7728775], [75.9091824, 26.7733416], [75.908007, 26.7740546], [75.9076416, 26.7741555], [75.9069635, 26.7741421], [75.9066433, 26.7740681], [75.9061008, 26.7737856], [75.905012, 26.7729615], [75.9040664, 26.7722586], [75.9037161, 26.7720433], [75.9031472, 26.7718415], [75.902439, 26.7717372], [75.9013691, 26.7718281], [75.9012703, 26.771882], [75.9002804, 26.7724222], [75.899661, 26.7730531], [75.8992322, 26.7736486], [75.8980565, 26.7751682], [75.8978665, 26.7754138], [75.8974377, 26.7759596], [75.897222, 26.776136], [75.8955559, 26.7774979], [75.8946745, 26.7781075], [75.8943887, 26.778228], [75.8935391, 26.7782068], [75.8929356, 26.7781359], [75.8922607, 26.7781288], [75.8906567, 26.7783273], [75.8899818, 26.7784903], [75.888894, 26.7789227], [75.8876712, 26.7797734], [75.8876284, 26.7798154], [75.8872821, 26.7801562], [75.8847571, 26.7814038], [75.8819065, 26.7822544], [75.8812236, 26.7821268], [75.8806599, 26.7820205], [75.8798738, 26.7819425], [75.8791671, 26.7820134], [75.878643, 26.7821126], [75.8774838, 26.7821481], [75.876785, 26.7821126], [75.8757845, 26.7818858], [75.874522, 26.7815101], [75.8730531, 26.78078], [75.8724337, 26.7805602], [75.8722511, 26.7803476], [75.8714094, 26.7794048], [75.8710918, 26.7792276], [75.8707822, 26.779107], [75.8701469, 26.7790362], [75.8695038, 26.7790078], [75.8688924, 26.7790503], [75.8676616, 26.7793197], [75.8666135, 26.7796245], [75.8657242, 26.7796741], [75.8656845, 26.7797734], [75.8641202, 26.7798797], [75.8636041, 26.779901], [75.8635962, 26.7798088], [75.8630086, 26.779823], [75.8624607, 26.7800002], [75.8620716, 26.7802696], [75.8613173, 26.7811911], [75.8607853, 26.7819779], [75.8605789, 26.7824103], [75.8603168, 26.7829349], [75.8600627, 26.7834452], [75.8596737, 26.7839981], [75.8592687, 26.7844589], [75.8587764, 26.7848062], [75.8583635, 26.7849834], [75.8579506, 26.7850968], [75.8576013, 26.785274], [75.8571248, 26.7857135], [75.8570286, 26.7859424]]}}]}